<?xml version="1.0" encoding="UTF-8"?>
<gpx creator="StravaGPX" version="1.1" xmlns="http://www.topografix.com/GPX/1/1" xmlns:xsi="http://www.w3.org/2001/XMLSchema-instance" xsi:schemaLocation="http://www.topografix.com/GPX/1/1 http://www.topografix.com/GPX/1/1/gpx.xsd">
 <metadata>
  <time>2025-09-08T10:52:02Z</time>
 </metadata>
 <trk>
  <name>me desintegro</name>
  <type>running</type>
  <trkseg>
   <trkpt lat="40.4337110" lon="-3.6834450">
    <ele>698.3</ele>
    <time>2025-09-08T10:52:02Z</time>
   </trkpt>
   <trkpt lat="40.4337100" lon="-3.6834550">
    <ele>698.3</ele>
    <time>2025-09-08T10:52:03Z</time>
   </trkpt>
   <trkpt lat="40.4337090" lon="-3.6834650">
    <ele>698.3</ele>
    <time>2025-09-08T10:52:04Z</time>
   </trkpt>
   <trkpt lat="40.4337080" lon="-3.6834750">
    <ele>698.3</ele>
    <time>2025-09-08T10:52:05Z</time>
   </trkpt>
   <trkpt lat="40.4337070" lon="-3.6834850">
    <ele>698.3</ele>
    <time>2025-09-08T10:52:06Z</time>
   </trkpt>
   <trkpt lat="40.4337050" lon="-3.6834950">
    <ele>698.2</ele>
    <time>2025-09-08T10:52:07Z</time>
   </trkpt>
   <trkpt lat="40.4337040" lon="-3.6835050">
    <ele>698.2</ele>
    <time>2025-09-08T10:52:08Z</time>
   </trkpt>
   <trkpt lat="40.4337030" lon="-3.6835140">
    <ele>698.2</ele>
    <time>2025-09-08T10:52:09Z</time>
   </trkpt>
   <trkpt lat="40.4337020" lon="-3.6835240">
    <ele>698.2</ele>
    <time>2025-09-08T10:52:10Z</time>
   </trkpt>
   <trkpt lat="40.4337010" lon="-3.6835340">
    <ele>698.2</ele>
    <time>2025-09-08T10:52:11Z</time>
   </trkpt>
   <trkpt lat="40.4337000" lon="-3.6835440">
    <ele>698.2</ele>
    <time>2025-09-08T10:52:12Z</time>
   </trkpt>
   <trkpt lat="40.4336990" lon="-3.6835540">
    <ele>698.2</ele>
    <time>2025-09-08T10:52:13Z</time>
   </trkpt>
   <trkpt lat="40.4336980" lon="-3.6835640">
    <ele>698.2</ele>
    <time>2025-09-08T10:52:14Z</time>
   </trkpt>
   <trkpt lat="40.4336960" lon="-3.6835740">
    <ele>698.2</ele>
    <time>2025-09-08T10:52:15Z</time>
   </trkpt>
   <trkpt lat="40.4336950" lon="-3.6835840">
    <ele>698.2</ele>
    <time>2025-09-08T10:52:16Z</time>
   </trkpt>
   <trkpt lat="40.4336940" lon="-3.6835940">
    <ele>698.1</ele>
    <time>2025-09-08T10:52:17Z</time>
   </trkpt>
   <trkpt lat="40.4336930" lon="-3.6836040">
    <ele>698.1</ele>
    <time>2025-09-08T10:52:18Z</time>
   </trkpt>
   <trkpt lat="40.4336920" lon="-3.6836140">
    <ele>698.1</ele>
    <time>2025-09-08T10:52:19Z</time>
   </trkpt>
   <trkpt lat="40.4336910" lon="-3.6836240">
    <ele>698.1</ele>
    <time>2025-09-08T10:52:20Z</time>
   </trkpt>
   <trkpt lat="40.4336900" lon="-3.6836330">
    <ele>698.1</ele>
    <time>2025-09-08T10:52:21Z</time>
   </trkpt>
   <trkpt lat="40.4336890" lon="-3.6836430">
    <ele>698.1</ele>
    <time>2025-09-08T10:52:22Z</time>
   </trkpt>
   <trkpt lat="40.4336870" lon="-3.6836530">
    <ele>698.1</ele>
    <time>2025-09-08T10:52:23Z</time>
   </trkpt>
   <trkpt lat="40.4336860" lon="-3.6836630">
    <ele>698.1</ele>
    <time>2025-09-08T10:52:24Z</time>
   </trkpt>
   <trkpt lat="40.4336850" lon="-3.6836730">
    <ele>698.1</ele>
    <time>2025-09-08T10:52:25Z</time>
   </trkpt>
   <trkpt lat="40.4336840" lon="-3.6836830">
    <ele>698.0</ele>
    <time>2025-09-08T10:52:26Z</time>
   </trkpt>
   <trkpt lat="40.4337110" lon="-3.6836720">
    <ele>698.0</ele>
    <time>2025-09-08T10:52:27Z</time>
   </trkpt>
   <trkpt lat="40.4337230" lon="-3.6836590">
    <ele>698.0</ele>
    <time>2025-09-08T10:52:28Z</time>
   </trkpt>
   <trkpt lat="40.4337520" lon="-3.6836570">
    <ele>697.9</ele>
    <time>2025-09-08T10:52:29Z</time>
   </trkpt>
   <trkpt lat="40.4337660" lon="-3.6836590">
    <ele>697.9</ele>
    <time>2025-09-08T10:52:30Z</time>
   </trkpt>
   <trkpt lat="40.4337940" lon="-3.6836430">
    <ele>697.8</ele>
    <time>2025-09-08T10:52:31Z</time>
   </trkpt>
   <trkpt lat="40.4338010" lon="-3.6836790">
    <ele>697.7</ele>
    <time>2025-09-08T10:52:32Z</time>
   </trkpt>
   <trkpt lat="40.4338120" lon="-3.6837290">
    <ele>697.6</ele>
    <time>2025-09-08T10:52:33Z</time>
   </trkpt>
   <trkpt lat="40.4338260" lon="-3.6837620">
    <ele>697.6</ele>
    <time>2025-09-08T10:52:34Z</time>
   </trkpt>
   <trkpt lat="40.4338150" lon="-3.6838040">
    <ele>697.5</ele>
    <time>2025-09-08T10:52:35Z</time>
   </trkpt>
   <trkpt lat="40.4338280" lon="-3.6838450">
    <ele>697.4</ele>
    <time>2025-09-08T10:52:36Z</time>
   </trkpt>
   <trkpt lat="40.4338330" lon="-3.6838990">
    <ele>697.3</ele>
    <time>2025-09-08T10:52:37Z</time>
   </trkpt>
   <trkpt lat="40.4338370" lon="-3.6839190">
    <ele>697.2</ele>
    <time>2025-09-08T10:52:38Z</time>
   </trkpt>
   <trkpt lat="40.4337450" lon="-3.6839880">
    <ele>697.0</ele>
    <time>2025-09-08T10:52:39Z</time>
   </trkpt>
   <trkpt lat="40.4337510" lon="-3.6840230">
    <ele>696.9</ele>
    <time>2025-09-08T10:52:40Z</time>
   </trkpt>
   <trkpt lat="40.4337580" lon="-3.6840340">
    <ele>696.9</ele>
    <time>2025-09-08T10:52:41Z</time>
   </trkpt>
   <trkpt lat="40.4337360" lon="-3.6840570">
    <ele>696.8</ele>
    <time>2025-09-08T10:52:42Z</time>
   </trkpt>
   <trkpt lat="40.4337540" lon="-3.6841080">
    <ele>696.7</ele>
    <time>2025-09-08T10:52:43Z</time>
   </trkpt>
   <trkpt lat="40.4337770" lon="-3.6841340">
    <ele>696.6</ele>
    <time>2025-09-08T10:52:44Z</time>
   </trkpt>
   <trkpt lat="40.4337540" lon="-3.6841670">
    <ele>696.5</ele>
    <time>2025-09-08T10:52:45Z</time>
   </trkpt>
   <trkpt lat="40.4337430" lon="-3.6841760">
    <ele>696.5</ele>
    <time>2025-09-08T10:52:46Z</time>
   </trkpt>
   <trkpt lat="40.4337590" lon="-3.6842100">
    <ele>696.4</ele>
    <time>2025-09-08T10:52:47Z</time>
   </trkpt>
   <trkpt lat="40.4337380" lon="-3.6842430">
    <ele>696.4</ele>
    <time>2025-09-08T10:52:48Z</time>
   </trkpt>
   <trkpt lat="40.4337230" lon="-3.6843150">
    <ele>696.3</ele>
    <time>2025-09-08T10:52:49Z</time>
   </trkpt>
   <trkpt lat="40.4337260" lon="-3.6843560">
    <ele>696.2</ele>
    <time>2025-09-08T10:52:50Z</time>
   </trkpt>
   <trkpt lat="40.4337440" lon="-3.6844160">
    <ele>696.1</ele>
    <time>2025-09-08T10:52:51Z</time>
   </trkpt>
   <trkpt lat="40.4337290" lon="-3.6844230">
    <ele>696.1</ele>
    <time>2025-09-08T10:52:52Z</time>
   </trkpt>
   <trkpt lat="40.4337560" lon="-3.6844510">
    <ele>696.0</ele>
    <time>2025-09-08T10:52:53Z</time>
   </trkpt>
   <trkpt lat="40.4337490" lon="-3.6845000">
    <ele>695.9</ele>
    <time>2025-09-08T10:52:54Z</time>
   </trkpt>
   <trkpt lat="40.4337650" lon="-3.6845480">
    <ele>695.9</ele>
    <time>2025-09-08T10:52:55Z</time>
   </trkpt>
   <trkpt lat="40.4337780" lon="-3.6846090">
    <ele>695.8</ele>
    <time>2025-09-08T10:52:56Z</time>
   </trkpt>
   <trkpt lat="40.4338000" lon="-3.6846670">
    <ele>695.7</ele>
    <time>2025-09-08T10:52:57Z</time>
   </trkpt>
   <trkpt lat="40.4338260" lon="-3.6846820">
    <ele>695.7</ele>
    <time>2025-09-08T10:52:58Z</time>
   </trkpt>
   <trkpt lat="40.4338700" lon="-3.6846820">
    <ele>695.6</ele>
    <time>2025-09-08T10:52:59Z</time>
   </trkpt>
   <trkpt lat="40.4338750" lon="-3.6847310">
    <ele>695.6</ele>
    <time>2025-09-08T10:53:00Z</time>
   </trkpt>
   <trkpt lat="40.4338760" lon="-3.6847560">
    <ele>695.6</ele>
    <time>2025-09-08T10:53:01Z</time>
   </trkpt>
   <trkpt lat="40.4338670" lon="-3.6848100">
    <ele>695.5</ele>
    <time>2025-09-08T10:53:02Z</time>
   </trkpt>
   <trkpt lat="40.4338640" lon="-3.6848570">
    <ele>695.4</ele>
    <time>2025-09-08T10:53:03Z</time>
   </trkpt>
   <trkpt lat="40.4338590" lon="-3.6848980">
    <ele>695.4</ele>
    <time>2025-09-08T10:53:04Z</time>
   </trkpt>
   <trkpt lat="40.4338380" lon="-3.6849310">
    <ele>695.3</ele>
    <time>2025-09-08T10:53:05Z</time>
   </trkpt>
   <trkpt lat="40.4338290" lon="-3.6849470">
    <ele>695.3</ele>
    <time>2025-09-08T10:53:06Z</time>
   </trkpt>
   <trkpt lat="40.4338260" lon="-3.6849840">
    <ele>695.3</ele>
    <time>2025-09-08T10:53:07Z</time>
   </trkpt>
   <trkpt lat="40.4338610" lon="-3.6850100">
    <ele>695.2</ele>
    <time>2025-09-08T10:53:08Z</time>
   </trkpt>
   <trkpt lat="40.4338870" lon="-3.6850450">
    <ele>695.1</ele>
    <time>2025-09-08T10:53:09Z</time>
   </trkpt>
   <trkpt lat="40.4339010" lon="-3.6850870">
    <ele>695.0</ele>
    <time>2025-09-08T10:53:10Z</time>
   </trkpt>
   <trkpt lat="40.4338880" lon="-3.6851380">
    <ele>694.8</ele>
    <time>2025-09-08T10:53:11Z</time>
   </trkpt>
   <trkpt lat="40.4338860" lon="-3.6851580">
    <ele>694.7</ele>
    <time>2025-09-08T10:53:12Z</time>
   </trkpt>
   <trkpt lat="40.4338860" lon="-3.6852000">
    <ele>694.5</ele>
    <time>2025-09-08T10:53:13Z</time>
   </trkpt>
   <trkpt lat="40.4338580" lon="-3.6852380">
    <ele>694.2</ele>
    <time>2025-09-08T10:53:14Z</time>
   </trkpt>
   <trkpt lat="40.4338530" lon="-3.6852800">
    <ele>694.0</ele>
    <time>2025-09-08T10:53:15Z</time>
   </trkpt>
   <trkpt lat="40.4338640" lon="-3.6853140">
    <ele>693.8</ele>
    <time>2025-09-08T10:53:16Z</time>
   </trkpt>
   <trkpt lat="40.4338740" lon="-3.6853610">
    <ele>693.6</ele>
    <time>2025-09-08T10:53:17Z</time>
   </trkpt>
   <trkpt lat="40.4338760" lon="-3.6853780">
    <ele>693.5</ele>
    <time>2025-09-08T10:53:18Z</time>
   </trkpt>
   <trkpt lat="40.4338810" lon="-3.6854240">
    <ele>693.3</ele>
    <time>2025-09-08T10:53:19Z</time>
   </trkpt>
   <trkpt lat="40.4338850" lon="-3.6854740">
    <ele>693.1</ele>
    <time>2025-09-08T10:53:20Z</time>
   </trkpt>
   <trkpt lat="40.4338860" lon="-3.6855230">
    <ele>692.8</ele>
    <time>2025-09-08T10:53:21Z</time>
   </trkpt>
   <trkpt lat="40.4338690" lon="-3.6855650">
    <ele>692.6</ele>
    <time>2025-09-08T10:53:22Z</time>
   </trkpt>
   <trkpt lat="40.4338570" lon="-3.6856030">
    <ele>692.4</ele>
    <time>2025-09-08T10:53:23Z</time>
   </trkpt>
   <trkpt lat="40.4338690" lon="-3.6856470">
    <ele>692.3</ele>
    <time>2025-09-08T10:53:24Z</time>
   </trkpt>
   <trkpt lat="40.4338720" lon="-3.6856660">
    <ele>692.2</ele>
    <time>2025-09-08T10:53:25Z</time>
   </trkpt>
   <trkpt lat="40.4339020" lon="-3.6856940">
    <ele>692.0</ele>
    <time>2025-09-08T10:53:26Z</time>
   </trkpt>
   <trkpt lat="40.4339120" lon="-3.6857080">
    <ele>691.9</ele>
    <time>2025-09-08T10:53:27Z</time>
   </trkpt>
   <trkpt lat="40.4339490" lon="-3.6857130">
    <ele>691.7</ele>
    <time>2025-09-08T10:53:28Z</time>
   </trkpt>
   <trkpt lat="40.4339770" lon="-3.6857320">
    <ele>691.5</ele>
    <time>2025-09-08T10:53:29Z</time>
   </trkpt>
   <trkpt lat="40.4340000" lon="-3.6857630">
    <ele>691.3</ele>
    <time>2025-09-08T10:53:30Z</time>
   </trkpt>
   <trkpt lat="40.4340220" lon="-3.6857920">
    <ele>691.1</ele>
    <time>2025-09-08T10:53:31Z</time>
   </trkpt>
   <trkpt lat="40.4340380" lon="-3.6858370">
    <ele>690.9</ele>
    <time>2025-09-08T10:53:33Z</time>
   </trkpt>
   <trkpt lat="40.4340630" lon="-3.6858610">
    <ele>690.7</ele>
    <time>2025-09-08T10:53:34Z</time>
   </trkpt>
   <trkpt lat="40.4341070" lon="-3.6858720">
    <ele>690.4</ele>
    <time>2025-09-08T10:53:35Z</time>
   </trkpt>
   <trkpt lat="40.4341350" lon="-3.6858960">
    <ele>690.2</ele>
    <time>2025-09-08T10:53:36Z</time>
   </trkpt>
   <trkpt lat="40.4341610" lon="-3.6859190">
    <ele>690.0</ele>
    <time>2025-09-08T10:53:37Z</time>
   </trkpt>
   <trkpt lat="40.4341890" lon="-3.6859530">
    <ele>689.8</ele>
    <time>2025-09-08T10:53:38Z</time>
   </trkpt>
   <trkpt lat="40.4341970" lon="-3.6859660">
    <ele>689.7</ele>
    <time>2025-09-08T10:53:39Z</time>
   </trkpt>
   <trkpt lat="40.4341080" lon="-3.6860280">
    <ele>689.1</ele>
    <time>2025-09-08T10:53:40Z</time>
   </trkpt>
   <trkpt lat="40.4341140" lon="-3.6860750">
    <ele>688.9</ele>
    <time>2025-09-08T10:53:41Z</time>
   </trkpt>
   <trkpt lat="40.4341120" lon="-3.6860970">
    <ele>688.8</ele>
    <time>2025-09-08T10:53:42Z</time>
   </trkpt>
   <trkpt lat="40.4341250" lon="-3.6861490">
    <ele>688.6</ele>
    <time>2025-09-08T10:53:43Z</time>
   </trkpt>
   <trkpt lat="40.4341260" lon="-3.6861710">
    <ele>688.5</ele>
    <time>2025-09-08T10:53:44Z</time>
   </trkpt>
   <trkpt lat="40.4341190" lon="-3.6862190">
    <ele>688.2</ele>
    <time>2025-09-08T10:53:45Z</time>
   </trkpt>
   <trkpt lat="40.4341210" lon="-3.6862570">
    <ele>688.1</ele>
    <time>2025-09-08T10:53:46Z</time>
   </trkpt>
   <trkpt lat="40.4341150" lon="-3.6863010">
    <ele>687.9</ele>
    <time>2025-09-08T10:53:47Z</time>
   </trkpt>
   <trkpt lat="40.4341130" lon="-3.6863400">
    <ele>687.7</ele>
    <time>2025-09-08T10:53:48Z</time>
   </trkpt>
   <trkpt lat="40.4341050" lon="-3.6863820">
    <ele>687.5</ele>
    <time>2025-09-08T10:53:49Z</time>
   </trkpt>
   <trkpt lat="40.4340810" lon="-3.6864360">
    <ele>687.2</ele>
    <time>2025-09-08T10:53:50Z</time>
   </trkpt>
   <trkpt lat="40.4340620" lon="-3.6864810">
    <ele>687.1</ele>
    <time>2025-09-08T10:53:51Z</time>
   </trkpt>
   <trkpt lat="40.4340510" lon="-3.6864950">
    <ele>687.1</ele>
    <time>2025-09-08T10:53:52Z</time>
   </trkpt>
   <trkpt lat="40.4340080" lon="-3.6865130">
    <ele>687.1</ele>
    <time>2025-09-08T10:53:53Z</time>
   </trkpt>
   <trkpt lat="40.4339700" lon="-3.6865270">
    <ele>687.0</ele>
    <time>2025-09-08T10:53:54Z</time>
   </trkpt>
   <trkpt lat="40.4339600" lon="-3.6865240">
    <ele>686.9</ele>
    <time>2025-09-08T10:53:55Z</time>
   </trkpt>
   <trkpt lat="40.4339410" lon="-3.6865260">
    <ele>686.9</ele>
    <time>2025-09-08T10:53:56Z</time>
   </trkpt>
   <trkpt lat="40.4339250" lon="-3.6865340">
    <ele>686.9</ele>
    <time>2025-09-08T10:53:57Z</time>
   </trkpt>
   <trkpt lat="40.4339060" lon="-3.6865300">
    <ele>686.8</ele>
    <time>2025-09-08T10:53:58Z</time>
   </trkpt>
   <trkpt lat="40.4338800" lon="-3.6865300">
    <ele>686.7</ele>
    <time>2025-09-08T10:53:59Z</time>
   </trkpt>
   <trkpt lat="40.4338680" lon="-3.6865330">
    <ele>686.7</ele>
    <time>2025-09-08T10:54:00Z</time>
   </trkpt>
   <trkpt lat="40.4338530" lon="-3.6865360">
    <ele>686.7</ele>
    <time>2025-09-08T10:54:01Z</time>
   </trkpt>
   <trkpt lat="40.4338410" lon="-3.6865480">
    <ele>686.6</ele>
    <time>2025-09-08T10:54:02Z</time>
   </trkpt>
   <trkpt lat="40.4338270" lon="-3.6865530">
    <ele>686.6</ele>
    <time>2025-09-08T10:54:03Z</time>
   </trkpt>
   <trkpt lat="40.4338170" lon="-3.6865590">
    <ele>686.6</ele>
    <time>2025-09-08T10:54:04Z</time>
   </trkpt>
   <trkpt lat="40.4338110" lon="-3.6865680">
    <ele>686.6</ele>
    <time>2025-09-08T10:54:05Z</time>
   </trkpt>
   <trkpt lat="40.4337890" lon="-3.6865410">
    <ele>686.5</ele>
    <time>2025-09-08T10:54:06Z</time>
   </trkpt>
   <trkpt lat="40.4337560" lon="-3.6865370">
    <ele>686.4</ele>
    <time>2025-09-08T10:54:07Z</time>
   </trkpt>
   <trkpt lat="40.4337210" lon="-3.6865170">
    <ele>686.3</ele>
    <time>2025-09-08T10:54:08Z</time>
   </trkpt>
   <trkpt lat="40.4337100" lon="-3.6865060">
    <ele>686.3</ele>
    <time>2025-09-08T10:54:09Z</time>
   </trkpt>
   <trkpt lat="40.4336830" lon="-3.6864880">
    <ele>686.2</ele>
    <time>2025-09-08T10:54:10Z</time>
   </trkpt>
   <trkpt lat="40.4336770" lon="-3.6864830">
    <ele>686.2</ele>
    <time>2025-09-08T10:54:11Z</time>
   </trkpt>
   <trkpt lat="40.4336440" lon="-3.6864780">
    <ele>686.2</ele>
    <time>2025-09-08T10:54:12Z</time>
   </trkpt>
   <trkpt lat="40.4336130" lon="-3.6865120">
    <ele>686.1</ele>
    <time>2025-09-08T10:54:13Z</time>
   </trkpt>
   <trkpt lat="40.4336090" lon="-3.6865580">
    <ele>686.0</ele>
    <time>2025-09-08T10:54:14Z</time>
   </trkpt>
   <trkpt lat="40.4336020" lon="-3.6865220">
    <ele>686.0</ele>
    <time>2025-09-08T10:54:15Z</time>
   </trkpt>
   <trkpt lat="40.4335930" lon="-3.6865100">
    <ele>685.9</ele>
    <time>2025-09-08T10:54:16Z</time>
   </trkpt>
   <trkpt lat="40.4335710" lon="-3.6864830">
    <ele>685.9</ele>
    <time>2025-09-08T10:54:17Z</time>
   </trkpt>
   <trkpt lat="40.4335480" lon="-3.6864610">
    <ele>685.8</ele>
    <time>2025-09-08T10:54:18Z</time>
   </trkpt>
   <trkpt lat="40.4335100" lon="-3.6864330">
    <ele>685.7</ele>
    <time>2025-09-08T10:54:19Z</time>
   </trkpt>
   <trkpt lat="40.4334690" lon="-3.6864370">
    <ele>685.7</ele>
    <time>2025-09-08T10:54:20Z</time>
   </trkpt>
   <trkpt lat="40.4334460" lon="-3.6864620">
    <ele>685.6</ele>
    <time>2025-09-08T10:54:21Z</time>
   </trkpt>
   <trkpt lat="40.4333930" lon="-3.6865160">
    <ele>685.5</ele>
    <time>2025-09-08T10:54:22Z</time>
   </trkpt>
   <trkpt lat="40.4333550" lon="-3.6865770">
    <ele>685.4</ele>
    <time>2025-09-08T10:54:23Z</time>
   </trkpt>
   <trkpt lat="40.4333330" lon="-3.6865430">
    <ele>685.4</ele>
    <time>2025-09-08T10:54:24Z</time>
   </trkpt>
   <trkpt lat="40.4332920" lon="-3.6865820">
    <ele>685.3</ele>
    <time>2025-09-08T10:54:25Z</time>
   </trkpt>
   <trkpt lat="40.4332700" lon="-3.6865980">
    <ele>685.3</ele>
    <time>2025-09-08T10:54:26Z</time>
   </trkpt>
   <trkpt lat="40.4332270" lon="-3.6866330">
    <ele>685.2</ele>
    <time>2025-09-08T10:54:27Z</time>
   </trkpt>
   <trkpt lat="40.4332060" lon="-3.6866640">
    <ele>685.1</ele>
    <time>2025-09-08T10:54:28Z</time>
   </trkpt>
   <trkpt lat="40.4331920" lon="-3.6866820">
    <ele>685.1</ele>
    <time>2025-09-08T10:54:29Z</time>
   </trkpt>
   <trkpt lat="40.4331580" lon="-3.6867050">
    <ele>685.0</ele>
    <time>2025-09-08T10:54:30Z</time>
   </trkpt>
   <trkpt lat="40.4331520" lon="-3.6867530">
    <ele>685.1</ele>
    <time>2025-09-08T10:54:31Z</time>
   </trkpt>
   <trkpt lat="40.4331490" lon="-3.6868180">
    <ele>685.1</ele>
    <time>2025-09-08T10:54:32Z</time>
   </trkpt>
   <trkpt lat="40.4331370" lon="-3.6868470">
    <ele>685.2</ele>
    <time>2025-09-08T10:54:33Z</time>
   </trkpt>
   <trkpt lat="40.4331310" lon="-3.6868620">
    <ele>685.2</ele>
    <time>2025-09-08T10:54:34Z</time>
   </trkpt>
   <trkpt lat="40.4331030" lon="-3.6868740">
    <ele>685.2</ele>
    <time>2025-09-08T10:54:35Z</time>
   </trkpt>
   <trkpt lat="40.4330700" lon="-3.6868780">
    <ele>685.3</ele>
    <time>2025-09-08T10:54:36Z</time>
   </trkpt>
   <trkpt lat="40.4330720" lon="-3.6869160">
    <ele>685.2</ele>
    <time>2025-09-08T10:54:37Z</time>
   </trkpt>
   <trkpt lat="40.4330790" lon="-3.6869670">
    <ele>685.1</ele>
    <time>2025-09-08T10:54:38Z</time>
   </trkpt>
   <trkpt lat="40.4330830" lon="-3.6869900">
    <ele>685.1</ele>
    <time>2025-09-08T10:54:39Z</time>
   </trkpt>
   <trkpt lat="40.4330960" lon="-3.6870410">
    <ele>685.0</ele>
    <time>2025-09-08T10:54:40Z</time>
   </trkpt>
   <trkpt lat="40.4331080" lon="-3.6870820">
    <ele>684.9</ele>
    <time>2025-09-08T10:54:41Z</time>
   </trkpt>
   <trkpt lat="40.4331040" lon="-3.6870950">
    <ele>684.9</ele>
    <time>2025-09-08T10:54:42Z</time>
   </trkpt>
   <trkpt lat="40.4331010" lon="-3.6871370">
    <ele>684.8</ele>
    <time>2025-09-08T10:54:43Z</time>
   </trkpt>
   <trkpt lat="40.4331080" lon="-3.6871850">
    <ele>684.7</ele>
    <time>2025-09-08T10:54:44Z</time>
   </trkpt>
   <trkpt lat="40.4331130" lon="-3.6872080">
    <ele>684.7</ele>
    <time>2025-09-08T10:54:45Z</time>
   </trkpt>
   <trkpt lat="40.4331190" lon="-3.6872510">
    <ele>684.6</ele>
    <time>2025-09-08T10:54:46Z</time>
   </trkpt>
   <trkpt lat="40.4331190" lon="-3.6872870">
    <ele>684.6</ele>
    <time>2025-09-08T10:54:47Z</time>
   </trkpt>
   <trkpt lat="40.4331480" lon="-3.6872950">
    <ele>684.5</ele>
    <time>2025-09-08T10:54:48Z</time>
   </trkpt>
   <trkpt lat="40.4331500" lon="-3.6873450">
    <ele>684.4</ele>
    <time>2025-09-08T10:54:49Z</time>
   </trkpt>
   <trkpt lat="40.4331430" lon="-3.6873650">
    <ele>684.3</ele>
    <time>2025-09-08T10:54:50Z</time>
   </trkpt>
   <trkpt lat="40.4331350" lon="-3.6874060">
    <ele>684.3</ele>
    <time>2025-09-08T10:54:51Z</time>
   </trkpt>
   <trkpt lat="40.4331420" lon="-3.6874410">
    <ele>684.2</ele>
    <time>2025-09-08T10:54:52Z</time>
   </trkpt>
   <trkpt lat="40.4331440" lon="-3.6874830">
    <ele>684.1</ele>
    <time>2025-09-08T10:54:53Z</time>
   </trkpt>
   <trkpt lat="40.4331400" lon="-3.6875420">
    <ele>684.0</ele>
    <time>2025-09-08T10:54:54Z</time>
   </trkpt>
   <trkpt lat="40.4331430" lon="-3.6875680">
    <ele>683.9</ele>
    <time>2025-09-08T10:54:55Z</time>
   </trkpt>
   <trkpt lat="40.4331400" lon="-3.6876150">
    <ele>683.8</ele>
    <time>2025-09-08T10:54:56Z</time>
   </trkpt>
   <trkpt lat="40.4331480" lon="-3.6876580">
    <ele>683.8</ele>
    <time>2025-09-08T10:54:57Z</time>
   </trkpt>
   <trkpt lat="40.4331270" lon="-3.6877000">
    <ele>683.7</ele>
    <time>2025-09-08T10:54:58Z</time>
   </trkpt>
   <trkpt lat="40.4331200" lon="-3.6877430">
    <ele>683.6</ele>
    <time>2025-09-08T10:54:59Z</time>
   </trkpt>
   <trkpt lat="40.4331140" lon="-3.6877900">
    <ele>683.5</ele>
    <time>2025-09-08T10:55:00Z</time>
   </trkpt>
   <trkpt lat="40.4331130" lon="-3.6878410">
    <ele>683.4</ele>
    <time>2025-09-08T10:55:01Z</time>
   </trkpt>
   <trkpt lat="40.4331110" lon="-3.6878570">
    <ele>683.3</ele>
    <time>2025-09-08T10:55:02Z</time>
   </trkpt>
   <trkpt lat="40.4331140" lon="-3.6879070">
    <ele>683.2</ele>
    <time>2025-09-08T10:55:03Z</time>
   </trkpt>
   <trkpt lat="40.4331140" lon="-3.6879250">
    <ele>683.2</ele>
    <time>2025-09-08T10:55:04Z</time>
   </trkpt>
   <trkpt lat="40.4331140" lon="-3.6879780">
    <ele>683.1</ele>
    <time>2025-09-08T10:55:05Z</time>
   </trkpt>
   <trkpt lat="40.4331140" lon="-3.6879960">
    <ele>683.1</ele>
    <time>2025-09-08T10:55:06Z</time>
   </trkpt>
   <trkpt lat="40.4331080" lon="-3.6880360">
    <ele>683.0</ele>
    <time>2025-09-08T10:55:07Z</time>
   </trkpt>
   <trkpt lat="40.4331180" lon="-3.6880790">
    <ele>682.9</ele>
    <time>2025-09-08T10:55:08Z</time>
   </trkpt>
   <trkpt lat="40.4331110" lon="-3.6881290">
    <ele>682.8</ele>
    <time>2025-09-08T10:55:09Z</time>
   </trkpt>
   <trkpt lat="40.4331090" lon="-3.6881460">
    <ele>682.8</ele>
    <time>2025-09-08T10:55:10Z</time>
   </trkpt>
   <trkpt lat="40.4331150" lon="-3.6881880">
    <ele>682.7</ele>
    <time>2025-09-08T10:55:11Z</time>
   </trkpt>
   <trkpt lat="40.4331210" lon="-3.6882310">
    <ele>682.6</ele>
    <time>2025-09-08T10:55:12Z</time>
   </trkpt>
   <trkpt lat="40.4331230" lon="-3.6882460">
    <ele>682.6</ele>
    <time>2025-09-08T10:55:13Z</time>
   </trkpt>
   <trkpt lat="40.4331240" lon="-3.6882780">
    <ele>682.5</ele>
    <time>2025-09-08T10:55:14Z</time>
   </trkpt>
   <trkpt lat="40.4331280" lon="-3.6883140">
    <ele>682.4</ele>
    <time>2025-09-08T10:55:16Z</time>
   </trkpt>
   <trkpt lat="40.4331300" lon="-3.6883630">
    <ele>682.3</ele>
    <time>2025-09-08T10:55:17Z</time>
   </trkpt>
   <trkpt lat="40.4331300" lon="-3.6883860">
    <ele>682.3</ele>
    <time>2025-09-08T10:55:18Z</time>
   </trkpt>
   <trkpt lat="40.4331220" lon="-3.6884340">
    <ele>682.2</ele>
    <time>2025-09-08T10:55:19Z</time>
   </trkpt>
   <trkpt lat="40.4331210" lon="-3.6884530">
    <ele>682.2</ele>
    <time>2025-09-08T10:55:20Z</time>
   </trkpt>
   <trkpt lat="40.4331300" lon="-3.6885020">
    <ele>682.1</ele>
    <time>2025-09-08T10:55:21Z</time>
   </trkpt>
   <trkpt lat="40.4331360" lon="-3.6885210">
    <ele>682.0</ele>
    <time>2025-09-08T10:55:22Z</time>
   </trkpt>
   <trkpt lat="40.4331340" lon="-3.6885720">
    <ele>681.9</ele>
    <time>2025-09-08T10:55:23Z</time>
   </trkpt>
   <trkpt lat="40.4331310" lon="-3.6885920">
    <ele>681.9</ele>
    <time>2025-09-08T10:55:24Z</time>
   </trkpt>
   <trkpt lat="40.4331300" lon="-3.6886320">
    <ele>681.8</ele>
    <time>2025-09-08T10:55:25Z</time>
   </trkpt>
   <trkpt lat="40.4331310" lon="-3.6886430">
    <ele>681.8</ele>
    <time>2025-09-08T10:55:26Z</time>
   </trkpt>
   <trkpt lat="40.4331240" lon="-3.6886800">
    <ele>681.7</ele>
    <time>2025-09-08T10:55:27Z</time>
   </trkpt>
   <trkpt lat="40.4331180" lon="-3.6887340">
    <ele>681.6</ele>
    <time>2025-09-08T10:55:28Z</time>
   </trkpt>
   <trkpt lat="40.4331130" lon="-3.6887550">
    <ele>681.6</ele>
    <time>2025-09-08T10:55:29Z</time>
   </trkpt>
   <trkpt lat="40.4331170" lon="-3.6887960">
    <ele>681.5</ele>
    <time>2025-09-08T10:55:30Z</time>
   </trkpt>
   <trkpt lat="40.4331140" lon="-3.6888520">
    <ele>681.4</ele>
    <time>2025-09-08T10:55:31Z</time>
   </trkpt>
   <trkpt lat="40.4331130" lon="-3.6888760">
    <ele>681.3</ele>
    <time>2025-09-08T10:55:32Z</time>
   </trkpt>
   <trkpt lat="40.4331070" lon="-3.6889270">
    <ele>681.2</ele>
    <time>2025-09-08T10:55:33Z</time>
   </trkpt>
   <trkpt lat="40.4331020" lon="-3.6889460">
    <ele>681.2</ele>
    <time>2025-09-08T10:55:34Z</time>
   </trkpt>
   <trkpt lat="40.4330970" lon="-3.6889910">
    <ele>681.1</ele>
    <time>2025-09-08T10:55:35Z</time>
   </trkpt>
   <trkpt lat="40.4330980" lon="-3.6890360">
    <ele>681.0</ele>
    <time>2025-09-08T10:55:36Z</time>
   </trkpt>
   <trkpt lat="40.4330950" lon="-3.6890540">
    <ele>681.0</ele>
    <time>2025-09-08T10:55:37Z</time>
   </trkpt>
   <trkpt lat="40.4330980" lon="-3.6891060">
    <ele>680.8</ele>
    <time>2025-09-08T10:55:38Z</time>
   </trkpt>
   <trkpt lat="40.4330940" lon="-3.6891250">
    <ele>680.8</ele>
    <time>2025-09-08T10:55:39Z</time>
   </trkpt>
   <trkpt lat="40.4330890" lon="-3.6891710">
    <ele>680.7</ele>
    <time>2025-09-08T10:55:40Z</time>
   </trkpt>
   <trkpt lat="40.4330830" lon="-3.6892060">
    <ele>680.6</ele>
    <time>2025-09-08T10:55:41Z</time>
   </trkpt>
   <trkpt lat="40.4330830" lon="-3.6892550">
    <ele>680.5</ele>
    <time>2025-09-08T10:55:42Z</time>
   </trkpt>
   <trkpt lat="40.4330820" lon="-3.6892760">
    <ele>680.5</ele>
    <time>2025-09-08T10:55:43Z</time>
   </trkpt>
   <trkpt lat="40.4330760" lon="-3.6893210">
    <ele>680.4</ele>
    <time>2025-09-08T10:55:44Z</time>
   </trkpt>
   <trkpt lat="40.4330750" lon="-3.6893370">
    <ele>680.4</ele>
    <time>2025-09-08T10:55:45Z</time>
   </trkpt>
   <trkpt lat="40.4330690" lon="-3.6893840">
    <ele>680.3</ele>
    <time>2025-09-08T10:55:46Z</time>
   </trkpt>
   <trkpt lat="40.4330570" lon="-3.6894280">
    <ele>680.2</ele>
    <time>2025-09-08T10:55:47Z</time>
   </trkpt>
   <trkpt lat="40.4330520" lon="-3.6894440">
    <ele>680.2</ele>
    <time>2025-09-08T10:55:48Z</time>
   </trkpt>
   <trkpt lat="40.4330640" lon="-3.6894820">
    <ele>680.1</ele>
    <time>2025-09-08T10:55:49Z</time>
   </trkpt>
   <trkpt lat="40.4330600" lon="-3.6895310">
    <ele>680.0</ele>
    <time>2025-09-08T10:55:50Z</time>
   </trkpt>
   <trkpt lat="40.4330610" lon="-3.6895670">
    <ele>680.0</ele>
    <time>2025-09-08T10:55:51Z</time>
   </trkpt>
   <trkpt lat="40.4330570" lon="-3.6896100">
    <ele>679.9</ele>
    <time>2025-09-08T10:55:52Z</time>
   </trkpt>
   <trkpt lat="40.4330630" lon="-3.6896480">
    <ele>679.8</ele>
    <time>2025-09-08T10:55:53Z</time>
   </trkpt>
   <trkpt lat="40.4330650" lon="-3.6896590">
    <ele>679.8</ele>
    <time>2025-09-08T10:55:54Z</time>
   </trkpt>
   <trkpt lat="40.4330730" lon="-3.6896980">
    <ele>679.7</ele>
    <time>2025-09-08T10:55:55Z</time>
   </trkpt>
   <trkpt lat="40.4330650" lon="-3.6897410">
    <ele>679.6</ele>
    <time>2025-09-08T10:55:56Z</time>
   </trkpt>
   <trkpt lat="40.4330720" lon="-3.6897950">
    <ele>679.5</ele>
    <time>2025-09-08T10:55:57Z</time>
   </trkpt>
   <trkpt lat="40.4330680" lon="-3.6898160">
    <ele>679.5</ele>
    <time>2025-09-08T10:55:58Z</time>
   </trkpt>
   <trkpt lat="40.4330610" lon="-3.6898560">
    <ele>679.4</ele>
    <time>2025-09-08T10:55:59Z</time>
   </trkpt>
   <trkpt lat="40.4330600" lon="-3.6899050">
    <ele>679.3</ele>
    <time>2025-09-08T10:56:00Z</time>
   </trkpt>
   <trkpt lat="40.4330510" lon="-3.6899400">
    <ele>679.3</ele>
    <time>2025-09-08T10:56:01Z</time>
   </trkpt>
   <trkpt lat="40.4330540" lon="-3.6899770">
    <ele>679.2</ele>
    <time>2025-09-08T10:56:02Z</time>
   </trkpt>
   <trkpt lat="40.4330580" lon="-3.6900210">
    <ele>679.1</ele>
    <time>2025-09-08T10:56:03Z</time>
   </trkpt>
   <trkpt lat="40.4330570" lon="-3.6900410">
    <ele>679.1</ele>
    <time>2025-09-08T10:56:04Z</time>
   </trkpt>
   <trkpt lat="40.4330550" lon="-3.6900800">
    <ele>679.0</ele>
    <time>2025-09-08T10:56:05Z</time>
   </trkpt>
   <trkpt lat="40.4330520" lon="-3.6901210">
    <ele>679.0</ele>
    <time>2025-09-08T10:56:06Z</time>
   </trkpt>
   <trkpt lat="40.4330480" lon="-3.6901570">
    <ele>678.9</ele>
    <time>2025-09-08T10:56:07Z</time>
   </trkpt>
   <trkpt lat="40.4330450" lon="-3.6901960">
    <ele>678.9</ele>
    <time>2025-09-08T10:56:08Z</time>
   </trkpt>
   <trkpt lat="40.4330370" lon="-3.6902460">
    <ele>678.8</ele>
    <time>2025-09-08T10:56:09Z</time>
   </trkpt>
   <trkpt lat="40.4330360" lon="-3.6902660">
    <ele>678.8</ele>
    <time>2025-09-08T10:56:10Z</time>
   </trkpt>
   <trkpt lat="40.4330370" lon="-3.6903230">
    <ele>678.8</ele>
    <time>2025-09-08T10:56:11Z</time>
   </trkpt>
   <trkpt lat="40.4330340" lon="-3.6903450">
    <ele>678.8</ele>
    <time>2025-09-08T10:56:12Z</time>
   </trkpt>
   <trkpt lat="40.4330440" lon="-3.6903900">
    <ele>678.8</ele>
    <time>2025-09-08T10:56:13Z</time>
   </trkpt>
   <trkpt lat="40.4330430" lon="-3.6904430">
    <ele>678.7</ele>
    <time>2025-09-08T10:56:14Z</time>
   </trkpt>
   <trkpt lat="40.4330400" lon="-3.6904610">
    <ele>678.7</ele>
    <time>2025-09-08T10:56:15Z</time>
   </trkpt>
   <trkpt lat="40.4330570" lon="-3.6904990">
    <ele>678.8</ele>
    <time>2025-09-08T10:56:16Z</time>
   </trkpt>
   <trkpt lat="40.4330780" lon="-3.6905050">
    <ele>678.8</ele>
    <time>2025-09-08T10:56:17Z</time>
   </trkpt>
   <trkpt lat="40.4331080" lon="-3.6905220">
    <ele>678.8</ele>
    <time>2025-09-08T10:56:18Z</time>
   </trkpt>
   <trkpt lat="40.4331320" lon="-3.6904990">
    <ele>678.8</ele>
    <time>2025-09-08T10:56:19Z</time>
   </trkpt>
   <trkpt lat="40.4331470" lon="-3.6904630">
    <ele>678.6</ele>
    <time>2025-09-08T10:56:20Z</time>
   </trkpt>
   <trkpt lat="40.4331520" lon="-3.6904240">
    <ele>678.4</ele>
    <time>2025-09-08T10:56:21Z</time>
   </trkpt>
   <trkpt lat="40.4331460" lon="-3.6903790">
    <ele>678.2</ele>
    <time>2025-09-08T10:56:22Z</time>
   </trkpt>
   <trkpt lat="40.4331450" lon="-3.6903640">
    <ele>678.1</ele>
    <time>2025-09-08T10:56:23Z</time>
   </trkpt>
   <trkpt lat="40.4331490" lon="-3.6903220">
    <ele>677.9</ele>
    <time>2025-09-08T10:56:24Z</time>
   </trkpt>
   <trkpt lat="40.4331490" lon="-3.6903050">
    <ele>677.8</ele>
    <time>2025-09-08T10:56:25Z</time>
   </trkpt>
   <trkpt lat="40.4331490" lon="-3.6902800">
    <ele>677.7</ele>
    <time>2025-09-08T10:56:26Z</time>
   </trkpt>
   <trkpt lat="40.4331560" lon="-3.6902610">
    <ele>677.6</ele>
    <time>2025-09-08T10:56:27Z</time>
   </trkpt>
   <trkpt lat="40.4331830" lon="-3.6902420">
    <ele>677.5</ele>
    <time>2025-09-08T10:56:28Z</time>
   </trkpt>
   <trkpt lat="40.4331870" lon="-3.6902310">
    <ele>677.5</ele>
    <time>2025-09-08T10:56:29Z</time>
   </trkpt>
   <trkpt lat="40.4332110" lon="-3.6902140">
    <ele>677.4</ele>
    <time>2025-09-08T10:56:30Z</time>
   </trkpt>
   <trkpt lat="40.4332360" lon="-3.6901850">
    <ele>677.4</ele>
    <time>2025-09-08T10:56:31Z</time>
   </trkpt>
   <trkpt lat="40.4332440" lon="-3.6901760">
    <ele>677.4</ele>
    <time>2025-09-08T10:56:32Z</time>
   </trkpt>
   <trkpt lat="40.4332650" lon="-3.6901520">
    <ele>677.4</ele>
    <time>2025-09-08T10:56:33Z</time>
   </trkpt>
   <trkpt lat="40.4332930" lon="-3.6901210">
    <ele>677.4</ele>
    <time>2025-09-08T10:56:34Z</time>
   </trkpt>
   <trkpt lat="40.4333010" lon="-3.6901090">
    <ele>677.4</ele>
    <time>2025-09-08T10:56:35Z</time>
   </trkpt>
   <trkpt lat="40.4333220" lon="-3.6900760">
    <ele>677.4</ele>
    <time>2025-09-08T10:56:36Z</time>
   </trkpt>
   <trkpt lat="40.4333710" lon="-3.6900920">
    <ele>677.4</ele>
    <time>2025-09-08T10:56:37Z</time>
   </trkpt>
   <trkpt lat="40.4334080" lon="-3.6901160">
    <ele>677.4</ele>
    <time>2025-09-08T10:56:38Z</time>
   </trkpt>
   <trkpt lat="40.4334450" lon="-3.6901190">
    <ele>677.4</ele>
    <time>2025-09-08T10:56:39Z</time>
   </trkpt>
   <trkpt lat="40.4334480" lon="-3.6901780">
    <ele>677.5</ele>
    <time>2025-09-08T10:56:40Z</time>
   </trkpt>
   <trkpt lat="40.4334790" lon="-3.6901750">
    <ele>677.5</ele>
    <time>2025-09-08T10:56:41Z</time>
   </trkpt>
   <trkpt lat="40.4334880" lon="-3.6901730">
    <ele>677.5</ele>
    <time>2025-09-08T10:56:42Z</time>
   </trkpt>
   <trkpt lat="40.4335200" lon="-3.6901590">
    <ele>677.5</ele>
    <time>2025-09-08T10:56:43Z</time>
   </trkpt>
   <trkpt lat="40.4335310" lon="-3.6901520">
    <ele>677.5</ele>
    <time>2025-09-08T10:56:44Z</time>
   </trkpt>
   <trkpt lat="40.4335620" lon="-3.6901310">
    <ele>677.5</ele>
    <time>2025-09-08T10:56:45Z</time>
   </trkpt>
   <trkpt lat="40.4335710" lon="-3.6901200">
    <ele>677.5</ele>
    <time>2025-09-08T10:56:46Z</time>
   </trkpt>
   <trkpt lat="40.4335970" lon="-3.6901000">
    <ele>677.5</ele>
    <time>2025-09-08T10:56:47Z</time>
   </trkpt>
   <trkpt lat="40.4336050" lon="-3.6900920">
    <ele>677.5</ele>
    <time>2025-09-08T10:56:48Z</time>
   </trkpt>
   <trkpt lat="40.4336220" lon="-3.6900980">
    <ele>677.5</ele>
    <time>2025-09-08T10:56:49Z</time>
   </trkpt>
   <trkpt lat="40.4336320" lon="-3.6900900">
    <ele>677.5</ele>
    <time>2025-09-08T10:56:50Z</time>
   </trkpt>
   <trkpt lat="40.4336420" lon="-3.6900830">
    <ele>677.5</ele>
    <time>2025-09-08T10:56:51Z</time>
   </trkpt>
   <trkpt lat="40.4336710" lon="-3.6900870">
    <ele>677.6</ele>
    <time>2025-09-08T10:56:52Z</time>
   </trkpt>
   <trkpt lat="40.4336910" lon="-3.6900920">
    <ele>677.6</ele>
    <time>2025-09-08T10:56:53Z</time>
   </trkpt>
   <trkpt lat="40.4337210" lon="-3.6900930">
    <ele>677.6</ele>
    <time>2025-09-08T10:56:54Z</time>
   </trkpt>
   <trkpt lat="40.4337520" lon="-3.6900830">
    <ele>677.6</ele>
    <time>2025-09-08T10:56:55Z</time>
   </trkpt>
   <trkpt lat="40.4337590" lon="-3.6900760">
    <ele>677.6</ele>
    <time>2025-09-08T10:56:56Z</time>
   </trkpt>
   <trkpt lat="40.4337330" lon="-3.6900720">
    <ele>677.6</ele>
    <time>2025-09-08T10:56:57Z</time>
   </trkpt>
   <trkpt lat="40.4337410" lon="-3.6900530">
    <ele>677.6</ele>
    <time>2025-09-08T10:56:58Z</time>
   </trkpt>
   <trkpt lat="40.4337580" lon="-3.6900350">
    <ele>677.6</ele>
    <time>2025-09-08T10:56:59Z</time>
   </trkpt>
   <trkpt lat="40.4337820" lon="-3.6900510">
    <ele>677.6</ele>
    <time>2025-09-08T10:57:00Z</time>
   </trkpt>
   <trkpt lat="40.4339650" lon="-3.6901730">
    <ele>677.8</ele>
    <time>2025-09-08T10:57:01Z</time>
   </trkpt>
   <trkpt lat="40.4339820" lon="-3.6901780">
    <ele>677.8</ele>
    <time>2025-09-08T10:57:02Z</time>
   </trkpt>
   <trkpt lat="40.4340450" lon="-3.6901730">
    <ele>677.9</ele>
    <time>2025-09-08T10:57:03Z</time>
   </trkpt>
   <trkpt lat="40.4340850" lon="-3.6901280">
    <ele>677.9</ele>
    <time>2025-09-08T10:57:04Z</time>
   </trkpt>
   <trkpt lat="40.4341030" lon="-3.6901010">
    <ele>678.0</ele>
    <time>2025-09-08T10:57:05Z</time>
   </trkpt>
   <trkpt lat="40.4341130" lon="-3.6900900">
    <ele>678.0</ele>
    <time>2025-09-08T10:57:06Z</time>
   </trkpt>
   <trkpt lat="40.4341420" lon="-3.6900820">
    <ele>678.0</ele>
    <time>2025-09-08T10:57:07Z</time>
   </trkpt>
   <trkpt lat="40.4341840" lon="-3.6900800">
    <ele>678.0</ele>
    <time>2025-09-08T10:57:08Z</time>
   </trkpt>
   <trkpt lat="40.4342100" lon="-3.6900700">
    <ele>678.0</ele>
    <time>2025-09-08T10:57:09Z</time>
   </trkpt>
   <trkpt lat="40.4342250" lon="-3.6900690">
    <ele>678.0</ele>
    <time>2025-09-08T10:57:10Z</time>
   </trkpt>
   <trkpt lat="40.4342540" lon="-3.6900730">
    <ele>678.0</ele>
    <time>2025-09-08T10:57:11Z</time>
   </trkpt>
   <trkpt lat="40.4342870" lon="-3.6900800">
    <ele>678.1</ele>
    <time>2025-09-08T10:57:12Z</time>
   </trkpt>
   <trkpt lat="40.4343190" lon="-3.6900930">
    <ele>678.1</ele>
    <time>2025-09-08T10:57:13Z</time>
   </trkpt>
   <trkpt lat="40.4343450" lon="-3.6901010">
    <ele>678.1</ele>
    <time>2025-09-08T10:57:14Z</time>
   </trkpt>
   <trkpt lat="40.4343530" lon="-3.6901100">
    <ele>678.1</ele>
    <time>2025-09-08T10:57:15Z</time>
   </trkpt>
   <trkpt lat="40.4343620" lon="-3.6901180">
    <ele>678.1</ele>
    <time>2025-09-08T10:57:16Z</time>
   </trkpt>
   <trkpt lat="40.4343970" lon="-3.6901250">
    <ele>678.1</ele>
    <time>2025-09-08T10:57:17Z</time>
   </trkpt>
   <trkpt lat="40.4344250" lon="-3.6901190">
    <ele>678.1</ele>
    <time>2025-09-08T10:57:18Z</time>
   </trkpt>
   <trkpt lat="40.4344400" lon="-3.6901160">
    <ele>678.1</ele>
    <time>2025-09-08T10:57:19Z</time>
   </trkpt>
   <trkpt lat="40.4344700" lon="-3.6901200">
    <ele>678.2</ele>
    <time>2025-09-08T10:57:20Z</time>
   </trkpt>
   <trkpt lat="40.4344870" lon="-3.6901680">
    <ele>678.2</ele>
    <time>2025-09-08T10:57:21Z</time>
   </trkpt>
   <trkpt lat="40.4345240" lon="-3.6901900">
    <ele>678.3</ele>
    <time>2025-09-08T10:57:22Z</time>
   </trkpt>
   <trkpt lat="40.4345350" lon="-3.6902030">
    <ele>678.3</ele>
    <time>2025-09-08T10:57:23Z</time>
   </trkpt>
   <trkpt lat="40.4345730" lon="-3.6902100">
    <ele>678.3</ele>
    <time>2025-09-08T10:57:24Z</time>
   </trkpt>
   <trkpt lat="40.4345860" lon="-3.6902040">
    <ele>678.3</ele>
    <time>2025-09-08T10:57:25Z</time>
   </trkpt>
   <trkpt lat="40.4346180" lon="-3.6901900">
    <ele>678.4</ele>
    <time>2025-09-08T10:57:26Z</time>
   </trkpt>
   <trkpt lat="40.4346300" lon="-3.6901830">
    <ele>678.4</ele>
    <time>2025-09-08T10:57:27Z</time>
   </trkpt>
   <trkpt lat="40.4346410" lon="-3.6901760">
    <ele>678.4</ele>
    <time>2025-09-08T10:57:28Z</time>
   </trkpt>
   <trkpt lat="40.4346750" lon="-3.6901670">
    <ele>678.5</ele>
    <time>2025-09-08T10:57:29Z</time>
   </trkpt>
   <trkpt lat="40.4346840" lon="-3.6901680">
    <ele>678.5</ele>
    <time>2025-09-08T10:57:30Z</time>
   </trkpt>
   <trkpt lat="40.4347170" lon="-3.6901560">
    <ele>678.5</ele>
    <time>2025-09-08T10:57:31Z</time>
   </trkpt>
   <trkpt lat="40.4347400" lon="-3.6901440">
    <ele>678.6</ele>
    <time>2025-09-08T10:57:32Z</time>
   </trkpt>
   <trkpt lat="40.4347510" lon="-3.6901410">
    <ele>678.6</ele>
    <time>2025-09-08T10:57:33Z</time>
   </trkpt>
   <trkpt lat="40.4347830" lon="-3.6901590">
    <ele>678.7</ele>
    <time>2025-09-08T10:57:34Z</time>
   </trkpt>
   <trkpt lat="40.4347930" lon="-3.6901700">
    <ele>678.7</ele>
    <time>2025-09-08T10:57:35Z</time>
   </trkpt>
   <trkpt lat="40.4348260" lon="-3.6901750">
    <ele>678.7</ele>
    <time>2025-09-08T10:57:36Z</time>
   </trkpt>
   <trkpt lat="40.4348660" lon="-3.6901650">
    <ele>678.8</ele>
    <time>2025-09-08T10:57:37Z</time>
   </trkpt>
   <trkpt lat="40.4349000" lon="-3.6901440">
    <ele>678.9</ele>
    <time>2025-09-08T10:57:38Z</time>
   </trkpt>
   <trkpt lat="40.4349230" lon="-3.6901270">
    <ele>678.9</ele>
    <time>2025-09-08T10:57:39Z</time>
   </trkpt>
   <trkpt lat="40.4349350" lon="-3.6901270">
    <ele>678.9</ele>
    <time>2025-09-08T10:57:40Z</time>
   </trkpt>
   <trkpt lat="40.4349470" lon="-3.6901240">
    <ele>679.0</ele>
    <time>2025-09-08T10:57:41Z</time>
   </trkpt>
   <trkpt lat="40.4349700" lon="-3.6901230">
    <ele>679.0</ele>
    <time>2025-09-08T10:57:42Z</time>
   </trkpt>
   <trkpt lat="40.4349690" lon="-3.6901290">
    <ele>679.0</ele>
    <time>2025-09-08T10:57:43Z</time>
   </trkpt>
   <trkpt lat="40.4349920" lon="-3.6901140">
    <ele>679.0</ele>
    <time>2025-09-08T10:57:44Z</time>
   </trkpt>
   <trkpt lat="40.4349990" lon="-3.6901120">
    <ele>679.1</ele>
    <time>2025-09-08T10:57:45Z</time>
   </trkpt>
   <trkpt lat="40.4350280" lon="-3.6900910">
    <ele>679.1</ele>
    <time>2025-09-08T10:57:46Z</time>
   </trkpt>
   <trkpt lat="40.4350360" lon="-3.6900800">
    <ele>679.1</ele>
    <time>2025-09-08T10:57:47Z</time>
   </trkpt>
   <trkpt lat="40.4350380" lon="-3.6900410">
    <ele>679.0</ele>
    <time>2025-09-08T10:57:48Z</time>
   </trkpt>
   <trkpt lat="40.4350460" lon="-3.6899890">
    <ele>678.8</ele>
    <time>2025-09-08T10:57:49Z</time>
   </trkpt>
   <trkpt lat="40.4350510" lon="-3.6899640">
    <ele>678.7</ele>
    <time>2025-09-08T10:57:50Z</time>
   </trkpt>
   <trkpt lat="40.4350570" lon="-3.6899270">
    <ele>678.6</ele>
    <time>2025-09-08T10:57:51Z</time>
   </trkpt>
   <trkpt lat="40.4350700" lon="-3.6898800">
    <ele>678.4</ele>
    <time>2025-09-08T10:57:52Z</time>
   </trkpt>
   <trkpt lat="40.4351090" lon="-3.6898280">
    <ele>678.2</ele>
    <time>2025-09-08T10:57:53Z</time>
   </trkpt>
   <trkpt lat="40.4351090" lon="-3.6897790">
    <ele>678.0</ele>
    <time>2025-09-08T10:57:54Z</time>
   </trkpt>
   <trkpt lat="40.4350940" lon="-3.6897380">
    <ele>677.9</ele>
    <time>2025-09-08T10:57:55Z</time>
   </trkpt>
   <trkpt lat="40.4350950" lon="-3.6896950">
    <ele>677.7</ele>
    <time>2025-09-08T10:57:56Z</time>
   </trkpt>
   <trkpt lat="40.4350910" lon="-3.6896820">
    <ele>677.7</ele>
    <time>2025-09-08T10:57:57Z</time>
   </trkpt>
   <trkpt lat="40.4350870" lon="-3.6896440">
    <ele>677.5</ele>
    <time>2025-09-08T10:57:58Z</time>
   </trkpt>
   <trkpt lat="40.4350910" lon="-3.6896010">
    <ele>677.4</ele>
    <time>2025-09-08T10:57:59Z</time>
   </trkpt>
   <trkpt lat="40.4351000" lon="-3.6895580">
    <ele>677.2</ele>
    <time>2025-09-08T10:58:00Z</time>
   </trkpt>
   <trkpt lat="40.4350980" lon="-3.6895130">
    <ele>677.0</ele>
    <time>2025-09-08T10:58:01Z</time>
   </trkpt>
   <trkpt lat="40.4350970" lon="-3.6894720">
    <ele>676.9</ele>
    <time>2025-09-08T10:58:02Z</time>
   </trkpt>
   <trkpt lat="40.4350990" lon="-3.6894290">
    <ele>676.7</ele>
    <time>2025-09-08T10:58:03Z</time>
   </trkpt>
   <trkpt lat="40.4350950" lon="-3.6894160">
    <ele>676.7</ele>
    <time>2025-09-08T10:58:04Z</time>
   </trkpt>
   <trkpt lat="40.4350550" lon="-3.6894110">
    <ele>676.5</ele>
    <time>2025-09-08T10:58:05Z</time>
   </trkpt>
   <trkpt lat="40.4350170" lon="-3.6894010">
    <ele>676.4</ele>
    <time>2025-09-08T10:58:06Z</time>
   </trkpt>
   <trkpt lat="40.4349880" lon="-3.6893810">
    <ele>676.3</ele>
    <time>2025-09-08T10:58:07Z</time>
   </trkpt>
   <trkpt lat="40.4349670" lon="-3.6893410">
    <ele>676.3</ele>
    <time>2025-09-08T10:58:08Z</time>
   </trkpt>
   <trkpt lat="40.4349610" lon="-3.6893230">
    <ele>676.3</ele>
    <time>2025-09-08T10:58:09Z</time>
   </trkpt>
   <trkpt lat="40.4349800" lon="-3.6892740">
    <ele>676.2</ele>
    <time>2025-09-08T10:58:10Z</time>
   </trkpt>
   <trkpt lat="40.4349810" lon="-3.6892280">
    <ele>676.2</ele>
    <time>2025-09-08T10:58:11Z</time>
   </trkpt>
   <trkpt lat="40.4349830" lon="-3.6892160">
    <ele>676.1</ele>
    <time>2025-09-08T10:58:12Z</time>
   </trkpt>
   <trkpt lat="40.4349830" lon="-3.6891760">
    <ele>676.0</ele>
    <time>2025-09-08T10:58:13Z</time>
   </trkpt>
   <trkpt lat="40.4349780" lon="-3.6891650">
    <ele>675.9</ele>
    <time>2025-09-08T10:58:14Z</time>
   </trkpt>
   <trkpt lat="40.4349500" lon="-3.6891270">
    <ele>675.9</ele>
    <time>2025-09-08T10:58:15Z</time>
   </trkpt>
   <trkpt lat="40.4349370" lon="-3.6891150">
    <ele>675.8</ele>
    <time>2025-09-08T10:58:16Z</time>
   </trkpt>
   <trkpt lat="40.4349070" lon="-3.6890820">
    <ele>675.8</ele>
    <time>2025-09-08T10:58:17Z</time>
   </trkpt>
   <trkpt lat="40.4348950" lon="-3.6890670">
    <ele>675.8</ele>
    <time>2025-09-08T10:58:18Z</time>
   </trkpt>
   <trkpt lat="40.4348640" lon="-3.6890530">
    <ele>675.7</ele>
    <time>2025-09-08T10:58:19Z</time>
   </trkpt>
   <trkpt lat="40.4348390" lon="-3.6890370">
    <ele>675.6</ele>
    <time>2025-09-08T10:58:20Z</time>
   </trkpt>
   <trkpt lat="40.4348160" lon="-3.6889930">
    <ele>675.5</ele>
    <time>2025-09-08T10:58:21Z</time>
   </trkpt>
   <trkpt lat="40.4348070" lon="-3.6889780">
    <ele>675.5</ele>
    <time>2025-09-08T10:58:22Z</time>
   </trkpt>
   <trkpt lat="40.4347860" lon="-3.6889380">
    <ele>675.5</ele>
    <time>2025-09-08T10:58:23Z</time>
   </trkpt>
   <trkpt lat="40.4347760" lon="-3.6889250">
    <ele>675.4</ele>
    <time>2025-09-08T10:58:24Z</time>
   </trkpt>
   <trkpt lat="40.4347500" lon="-3.6888870">
    <ele>675.4</ele>
    <time>2025-09-08T10:58:25Z</time>
   </trkpt>
   <trkpt lat="40.4347400" lon="-3.6888780">
    <ele>675.4</ele>
    <time>2025-09-08T10:58:26Z</time>
   </trkpt>
   <trkpt lat="40.4347090" lon="-3.6888610">
    <ele>675.4</ele>
    <time>2025-09-08T10:58:27Z</time>
   </trkpt>
   <trkpt lat="40.4346980" lon="-3.6888560">
    <ele>675.3</ele>
    <time>2025-09-08T10:58:28Z</time>
   </trkpt>
   <trkpt lat="40.4346570" lon="-3.6888350">
    <ele>675.3</ele>
    <time>2025-09-08T10:58:29Z</time>
   </trkpt>
   <trkpt lat="40.4346410" lon="-3.6888260">
    <ele>675.3</ele>
    <time>2025-09-08T10:58:30Z</time>
   </trkpt>
   <trkpt lat="40.4346060" lon="-3.6888250">
    <ele>675.2</ele>
    <time>2025-09-08T10:58:31Z</time>
   </trkpt>
   <trkpt lat="40.4345940" lon="-3.6888310">
    <ele>675.2</ele>
    <time>2025-09-08T10:58:32Z</time>
   </trkpt>
   <trkpt lat="40.4345580" lon="-3.6888330">
    <ele>675.2</ele>
    <time>2025-09-08T10:58:33Z</time>
   </trkpt>
   <trkpt lat="40.4345480" lon="-3.6888340">
    <ele>675.2</ele>
    <time>2025-09-08T10:58:34Z</time>
   </trkpt>
   <trkpt lat="40.4345100" lon="-3.6888370">
    <ele>675.1</ele>
    <time>2025-09-08T10:58:35Z</time>
   </trkpt>
   <trkpt lat="40.4344970" lon="-3.6888360">
    <ele>675.1</ele>
    <time>2025-09-08T10:58:36Z</time>
   </trkpt>
   <trkpt lat="40.4344690" lon="-3.6888300">
    <ele>675.1</ele>
    <time>2025-09-08T10:58:37Z</time>
   </trkpt>
   <trkpt lat="40.4344390" lon="-3.6888270">
    <ele>675.1</ele>
    <time>2025-09-08T10:58:38Z</time>
   </trkpt>
   <trkpt lat="40.4344050" lon="-3.6888250">
    <ele>675.0</ele>
    <time>2025-09-08T10:58:39Z</time>
   </trkpt>
   <trkpt lat="40.4343930" lon="-3.6888270">
    <ele>675.0</ele>
    <time>2025-09-08T10:58:40Z</time>
   </trkpt>
   <trkpt lat="40.4343630" lon="-3.6888150">
    <ele>675.0</ele>
    <time>2025-09-08T10:58:41Z</time>
   </trkpt>
   <trkpt lat="40.4343290" lon="-3.6888040">
    <ele>674.9</ele>
    <time>2025-09-08T10:58:42Z</time>
   </trkpt>
   <trkpt lat="40.4343190" lon="-3.6888010">
    <ele>674.9</ele>
    <time>2025-09-08T10:58:43Z</time>
   </trkpt>
   <trkpt lat="40.4342880" lon="-3.6887900">
    <ele>674.9</ele>
    <time>2025-09-08T10:58:44Z</time>
   </trkpt>
   <trkpt lat="40.4342580" lon="-3.6887840">
    <ele>674.9</ele>
    <time>2025-09-08T10:58:45Z</time>
   </trkpt>
   <trkpt lat="40.4342480" lon="-3.6887840">
    <ele>674.9</ele>
    <time>2025-09-08T10:58:46Z</time>
   </trkpt>
   <trkpt lat="40.4342180" lon="-3.6887710">
    <ele>674.8</ele>
    <time>2025-09-08T10:58:47Z</time>
   </trkpt>
   <trkpt lat="40.4341910" lon="-3.6887750">
    <ele>674.8</ele>
    <time>2025-09-08T10:58:48Z</time>
   </trkpt>
   <trkpt lat="40.4341800" lon="-3.6887770">
    <ele>674.8</ele>
    <time>2025-09-08T10:58:49Z</time>
   </trkpt>
   <trkpt lat="40.4341510" lon="-3.6887680">
    <ele>674.7</ele>
    <time>2025-09-08T10:58:50Z</time>
   </trkpt>
   <trkpt lat="40.4341200" lon="-3.6887470">
    <ele>674.7</ele>
    <time>2025-09-08T10:58:51Z</time>
   </trkpt>
   <trkpt lat="40.4341120" lon="-3.6887420">
    <ele>674.7</ele>
    <time>2025-09-08T10:58:52Z</time>
   </trkpt>
   <trkpt lat="40.4340720" lon="-3.6887410">
    <ele>674.6</ele>
    <time>2025-09-08T10:58:53Z</time>
   </trkpt>
   <trkpt lat="40.4340550" lon="-3.6887370">
    <ele>674.6</ele>
    <time>2025-09-08T10:58:54Z</time>
   </trkpt>
   <trkpt lat="40.4340280" lon="-3.6887360">
    <ele>674.6</ele>
    <time>2025-09-08T10:58:55Z</time>
   </trkpt>
   <trkpt lat="40.4339960" lon="-3.6887290">
    <ele>674.6</ele>
    <time>2025-09-08T10:58:56Z</time>
   </trkpt>
   <trkpt lat="40.4339820" lon="-3.6887280">
    <ele>674.5</ele>
    <time>2025-09-08T10:58:57Z</time>
   </trkpt>
   <trkpt lat="40.4339450" lon="-3.6887210">
    <ele>674.5</ele>
    <time>2025-09-08T10:58:58Z</time>
   </trkpt>
   <trkpt lat="40.4339310" lon="-3.6887160">
    <ele>674.5</ele>
    <time>2025-09-08T10:58:59Z</time>
   </trkpt>
   <trkpt lat="40.4338970" lon="-3.6887050">
    <ele>674.4</ele>
    <time>2025-09-08T10:59:00Z</time>
   </trkpt>
   <trkpt lat="40.4338880" lon="-3.6887070">
    <ele>674.4</ele>
    <time>2025-09-08T10:59:01Z</time>
   </trkpt>
   <trkpt lat="40.4338570" lon="-3.6887040">
    <ele>674.4</ele>
    <time>2025-09-08T10:59:02Z</time>
   </trkpt>
   <trkpt lat="40.4338260" lon="-3.6886960">
    <ele>674.4</ele>
    <time>2025-09-08T10:59:03Z</time>
   </trkpt>
   <trkpt lat="40.4337910" lon="-3.6886940">
    <ele>674.3</ele>
    <time>2025-09-08T10:59:04Z</time>
   </trkpt>
   <trkpt lat="40.4337780" lon="-3.6886900">
    <ele>674.3</ele>
    <time>2025-09-08T10:59:05Z</time>
   </trkpt>
   <trkpt lat="40.4337440" lon="-3.6886900">
    <ele>674.3</ele>
    <time>2025-09-08T10:59:06Z</time>
   </trkpt>
   <trkpt lat="40.4337350" lon="-3.6886910">
    <ele>674.3</ele>
    <time>2025-09-08T10:59:07Z</time>
   </trkpt>
   <trkpt lat="40.4337020" lon="-3.6886820">
    <ele>674.2</ele>
    <time>2025-09-08T10:59:08Z</time>
   </trkpt>
   <trkpt lat="40.4336920" lon="-3.6886800">
    <ele>674.2</ele>
    <time>2025-09-08T10:59:09Z</time>
   </trkpt>
   <trkpt lat="40.4336660" lon="-3.6886720">
    <ele>674.2</ele>
    <time>2025-09-08T10:59:10Z</time>
   </trkpt>
   <trkpt lat="40.4336520" lon="-3.6886710">
    <ele>674.2</ele>
    <time>2025-09-08T10:59:11Z</time>
   </trkpt>
   <trkpt lat="40.4336110" lon="-3.6886590">
    <ele>674.2</ele>
    <time>2025-09-08T10:59:12Z</time>
   </trkpt>
   <trkpt lat="40.4335940" lon="-3.6886570">
    <ele>674.1</ele>
    <time>2025-09-08T10:59:13Z</time>
   </trkpt>
   <trkpt lat="40.4335580" lon="-3.6886460">
    <ele>674.1</ele>
    <time>2025-09-08T10:59:14Z</time>
   </trkpt>
   <trkpt lat="40.4335460" lon="-3.6886420">
    <ele>674.1</ele>
    <time>2025-09-08T10:59:15Z</time>
   </trkpt>
   <trkpt lat="40.4335180" lon="-3.6886360">
    <ele>674.1</ele>
    <time>2025-09-08T10:59:16Z</time>
   </trkpt>
   <trkpt lat="40.4334800" lon="-3.6886380">
    <ele>674.0</ele>
    <time>2025-09-08T10:59:17Z</time>
   </trkpt>
   <trkpt lat="40.4334680" lon="-3.6886450">
    <ele>674.0</ele>
    <time>2025-09-08T10:59:18Z</time>
   </trkpt>
   <trkpt lat="40.4334380" lon="-3.6886430">
    <ele>674.0</ele>
    <time>2025-09-08T10:59:19Z</time>
   </trkpt>
   <trkpt lat="40.4334230" lon="-3.6886370">
    <ele>674.0</ele>
    <time>2025-09-08T10:59:20Z</time>
   </trkpt>
   <trkpt lat="40.4333950" lon="-3.6886270">
    <ele>674.0</ele>
    <time>2025-09-08T10:59:21Z</time>
   </trkpt>
   <trkpt lat="40.4333600" lon="-3.6886280">
    <ele>673.9</ele>
    <time>2025-09-08T10:59:22Z</time>
   </trkpt>
   <trkpt lat="40.4333470" lon="-3.6886250">
    <ele>673.9</ele>
    <time>2025-09-08T10:59:23Z</time>
   </trkpt>
   <trkpt lat="40.4333060" lon="-3.6886200">
    <ele>673.9</ele>
    <time>2025-09-08T10:59:24Z</time>
   </trkpt>
   <trkpt lat="40.4332890" lon="-3.6886110">
    <ele>673.8</ele>
    <time>2025-09-08T10:59:25Z</time>
   </trkpt>
   <trkpt lat="40.4332630" lon="-3.6885870">
    <ele>673.8</ele>
    <time>2025-09-08T10:59:26Z</time>
   </trkpt>
   <trkpt lat="40.4332320" lon="-3.6885850">
    <ele>673.8</ele>
    <time>2025-09-08T10:59:27Z</time>
   </trkpt>
   <trkpt lat="40.4331980" lon="-3.6885930">
    <ele>673.7</ele>
    <time>2025-09-08T10:59:28Z</time>
   </trkpt>
   <trkpt lat="40.4331870" lon="-3.6885970">
    <ele>673.7</ele>
    <time>2025-09-08T10:59:29Z</time>
   </trkpt>
   <trkpt lat="40.4331590" lon="-3.6885990">
    <ele>673.7</ele>
    <time>2025-09-08T10:59:30Z</time>
   </trkpt>
   <trkpt lat="40.4331330" lon="-3.6885870">
    <ele>673.6</ele>
    <time>2025-09-08T10:59:31Z</time>
   </trkpt>
   <trkpt lat="40.4331080" lon="-3.6885600">
    <ele>673.3</ele>
    <time>2025-09-08T10:59:32Z</time>
   </trkpt>
   <trkpt lat="40.4331100" lon="-3.6885120">
    <ele>673.0</ele>
    <time>2025-09-08T10:59:33Z</time>
   </trkpt>
   <trkpt lat="40.4331210" lon="-3.6884850">
    <ele>672.8</ele>
    <time>2025-09-08T10:59:34Z</time>
   </trkpt>
   <trkpt lat="40.4331320" lon="-3.6884490">
    <ele>672.8</ele>
    <time>2025-09-08T10:59:35Z</time>
   </trkpt>
   <trkpt lat="40.4331590" lon="-3.6884530">
    <ele>672.9</ele>
    <time>2025-09-08T10:59:36Z</time>
   </trkpt>
   <trkpt lat="40.4331680" lon="-3.6884560">
    <ele>672.9</ele>
    <time>2025-09-08T10:59:37Z</time>
   </trkpt>
   <trkpt lat="40.4331760" lon="-3.6884600">
    <ele>672.9</ele>
    <time>2025-09-08T10:59:38Z</time>
   </trkpt>
   <trkpt lat="40.4331840" lon="-3.6884640">
    <ele>672.9</ele>
    <time>2025-09-08T10:59:39Z</time>
   </trkpt>
   <trkpt lat="40.4331880" lon="-3.6884500">
    <ele>672.9</ele>
    <time>2025-09-08T10:59:40Z</time>
   </trkpt>
   <trkpt lat="40.4331890" lon="-3.6884340">
    <ele>673.0</ele>
    <time>2025-09-08T10:59:41Z</time>
   </trkpt>
   <trkpt lat="40.4331910" lon="-3.6884190">
    <ele>673.0</ele>
    <time>2025-09-08T10:59:42Z</time>
   </trkpt>
   <trkpt lat="40.4331920" lon="-3.6884030">
    <ele>673.0</ele>
    <time>2025-09-08T10:59:43Z</time>
   </trkpt>
   <trkpt lat="40.4331940" lon="-3.6883870">
    <ele>673.0</ele>
    <time>2025-09-08T10:59:44Z</time>
   </trkpt>
   <trkpt lat="40.4331950" lon="-3.6883710">
    <ele>673.1</ele>
    <time>2025-09-08T10:59:45Z</time>
   </trkpt>
   <trkpt lat="40.4331990" lon="-3.6883320">
    <ele>673.3</ele>
    <time>2025-09-08T10:59:46Z</time>
   </trkpt>
   <trkpt lat="40.4332000" lon="-3.6882930">
    <ele>673.5</ele>
    <time>2025-09-08T10:59:47Z</time>
   </trkpt>
   <trkpt lat="40.4331830" lon="-3.6882450">
    <ele>673.8</ele>
    <time>2025-09-08T10:59:48Z</time>
   </trkpt>
   <trkpt lat="40.4331630" lon="-3.6882090">
    <ele>674.0</ele>
    <time>2025-09-08T10:59:49Z</time>
   </trkpt>
   <trkpt lat="40.4331530" lon="-3.6881900">
    <ele>674.1</ele>
    <time>2025-09-08T10:59:50Z</time>
   </trkpt>
   <trkpt lat="40.4331180" lon="-3.6881630">
    <ele>674.3</ele>
    <time>2025-09-08T10:59:51Z</time>
   </trkpt>
   <trkpt lat="40.4330460" lon="-3.6880850">
    <ele>674.5</ele>
    <time>2025-09-08T10:59:52Z</time>
   </trkpt>
   <trkpt lat="40.4330100" lon="-3.6880740">
    <ele>674.8</ele>
    <time>2025-09-08T10:59:53Z</time>
   </trkpt>
   <trkpt lat="40.4329990" lon="-3.6880560">
    <ele>675.1</ele>
    <time>2025-09-08T10:59:54Z</time>
   </trkpt>
   <trkpt lat="40.4329510" lon="-3.6880260">
    <ele>675.3</ele>
    <time>2025-09-08T10:59:55Z</time>
   </trkpt>
   <trkpt lat="40.4329350" lon="-3.6880140">
    <ele>675.7</ele>
    <time>2025-09-08T10:59:56Z</time>
   </trkpt>
   <trkpt lat="40.4328960" lon="-3.6880050">
    <ele>675.9</ele>
    <time>2025-09-08T10:59:57Z</time>
   </trkpt>
   <trkpt lat="40.4328750" lon="-3.6879490">
    <ele>676.0</ele>
    <time>2025-09-08T10:59:58Z</time>
   </trkpt>
   <trkpt lat="40.4328620" lon="-3.6879050">
    <ele>676.1</ele>
    <time>2025-09-08T10:59:59Z</time>
   </trkpt>
   <trkpt lat="40.4328500" lon="-3.6878540">
    <ele>676.2</ele>
    <time>2025-09-08T11:00:00Z</time>
   </trkpt>
   <trkpt lat="40.4328410" lon="-3.6878140">
    <ele>676.3</ele>
    <time>2025-09-08T11:00:01Z</time>
   </trkpt>
   <trkpt lat="40.4328440" lon="-3.6877650">
    <ele>676.4</ele>
    <time>2025-09-08T11:00:02Z</time>
   </trkpt>
   <trkpt lat="40.4328350" lon="-3.6877230">
    <ele>676.5</ele>
    <time>2025-09-08T11:00:03Z</time>
   </trkpt>
   <trkpt lat="40.4328340" lon="-3.6876870">
    <ele>676.5</ele>
    <time>2025-09-08T11:00:04Z</time>
   </trkpt>
   <trkpt lat="40.4328420" lon="-3.6876350">
    <ele>676.7</ele>
    <time>2025-09-08T11:00:05Z</time>
   </trkpt>
   <trkpt lat="40.4328450" lon="-3.6876110">
    <ele>676.7</ele>
    <time>2025-09-08T11:00:06Z</time>
   </trkpt>
   <trkpt lat="40.4328650" lon="-3.6875730">
    <ele>677.0</ele>
    <time>2025-09-08T11:00:07Z</time>
   </trkpt>
   <trkpt lat="40.4328680" lon="-3.6875360">
    <ele>677.4</ele>
    <time>2025-09-08T11:00:08Z</time>
   </trkpt>
   <trkpt lat="40.4328630" lon="-3.6875010">
    <ele>677.7</ele>
    <time>2025-09-08T11:00:09Z</time>
   </trkpt>
   <trkpt lat="40.4328670" lon="-3.6874590">
    <ele>678.1</ele>
    <time>2025-09-08T11:00:10Z</time>
   </trkpt>
   <trkpt lat="40.4328650" lon="-3.6874470">
    <ele>678.2</ele>
    <time>2025-09-08T11:00:11Z</time>
   </trkpt>
   <trkpt lat="40.4328520" lon="-3.6874140">
    <ele>678.6</ele>
    <time>2025-09-08T11:00:12Z</time>
   </trkpt>
   <trkpt lat="40.4328430" lon="-3.6873680">
    <ele>679.0</ele>
    <time>2025-09-08T11:00:13Z</time>
   </trkpt>
   <trkpt lat="40.4328350" lon="-3.6873560">
    <ele>679.1</ele>
    <time>2025-09-08T11:00:14Z</time>
   </trkpt>
   <trkpt lat="40.4328480" lon="-3.6873180">
    <ele>679.4</ele>
    <time>2025-09-08T11:00:15Z</time>
   </trkpt>
   <trkpt lat="40.4328350" lon="-3.6872850">
    <ele>679.7</ele>
    <time>2025-09-08T11:00:16Z</time>
   </trkpt>
   <trkpt lat="40.4328530" lon="-3.6872530">
    <ele>680.0</ele>
    <time>2025-09-08T11:00:17Z</time>
   </trkpt>
   <trkpt lat="40.4328400" lon="-3.6872130">
    <ele>680.3</ele>
    <time>2025-09-08T11:00:18Z</time>
   </trkpt>
   <trkpt lat="40.4328350" lon="-3.6871980">
    <ele>680.4</ele>
    <time>2025-09-08T11:00:19Z</time>
   </trkpt>
   <trkpt lat="40.4328120" lon="-3.6871760">
    <ele>680.7</ele>
    <time>2025-09-08T11:00:20Z</time>
   </trkpt>
   <trkpt lat="40.4328090" lon="-3.6871530">
    <ele>680.8</ele>
    <time>2025-09-08T11:00:21Z</time>
   </trkpt>
   <trkpt lat="40.4327980" lon="-3.6871330">
    <ele>681.0</ele>
    <time>2025-09-08T11:00:22Z</time>
   </trkpt>
   <trkpt lat="40.4328070" lon="-3.6871020">
    <ele>681.3</ele>
    <time>2025-09-08T11:00:23Z</time>
   </trkpt>
   <trkpt lat="40.4328220" lon="-3.6870950">
    <ele>681.4</ele>
    <time>2025-09-08T11:00:24Z</time>
   </trkpt>
   <trkpt lat="40.4328520" lon="-3.6870810">
    <ele>681.8</ele>
    <time>2025-09-08T11:00:25Z</time>
   </trkpt>
   <trkpt lat="40.4328570" lon="-3.6870780">
    <ele>681.9</ele>
    <time>2025-09-08T11:00:26Z</time>
   </trkpt>
   <trkpt lat="40.4328670" lon="-3.6870700">
    <ele>682.1</ele>
    <time>2025-09-08T11:00:27Z</time>
   </trkpt>
   <trkpt lat="40.4328760" lon="-3.6870630">
    <ele>682.2</ele>
    <time>2025-09-08T11:00:28Z</time>
   </trkpt>
   <trkpt lat="40.4328850" lon="-3.6870510">
    <ele>682.4</ele>
    <time>2025-09-08T11:00:29Z</time>
   </trkpt>
   <trkpt lat="40.4328910" lon="-3.6870410">
    <ele>682.5</ele>
    <time>2025-09-08T11:00:30Z</time>
   </trkpt>
   <trkpt lat="40.4329010" lon="-3.6870300">
    <ele>682.7</ele>
    <time>2025-09-08T11:00:31Z</time>
   </trkpt>
   <trkpt lat="40.4329330" lon="-3.6870290">
    <ele>683.6</ele>
    <time>2025-09-08T11:00:32Z</time>
   </trkpt>
   <trkpt lat="40.4329630" lon="-3.6869990">
    <ele>685.0</ele>
    <time>2025-09-08T11:00:33Z</time>
   </trkpt>
   <trkpt lat="40.4329860" lon="-3.6869700">
    <ele>685.5</ele>
    <time>2025-09-08T11:00:34Z</time>
   </trkpt>
   <trkpt lat="40.4330170" lon="-3.6869580">
    <ele>685.6</ele>
    <time>2025-09-08T11:00:35Z</time>
   </trkpt>
   <trkpt lat="40.4330530" lon="-3.6869720">
    <ele>685.8</ele>
    <time>2025-09-08T11:00:36Z</time>
   </trkpt>
   <trkpt lat="40.4330880" lon="-3.6869610">
    <ele>685.8</ele>
    <time>2025-09-08T11:00:37Z</time>
   </trkpt>
   <trkpt lat="40.4331190" lon="-3.6869980">
    <ele>685.6</ele>
    <time>2025-09-08T11:00:38Z</time>
   </trkpt>
   <trkpt lat="40.4331510" lon="-3.6870000">
    <ele>685.5</ele>
    <time>2025-09-08T11:00:39Z</time>
   </trkpt>
   <trkpt lat="40.4331580" lon="-3.6869900">
    <ele>685.4</ele>
    <time>2025-09-08T11:00:40Z</time>
   </trkpt>
   <trkpt lat="40.4331910" lon="-3.6870070">
    <ele>685.2</ele>
    <time>2025-09-08T11:00:41Z</time>
   </trkpt>
   <trkpt lat="40.4331990" lon="-3.6870130">
    <ele>685.2</ele>
    <time>2025-09-08T11:00:42Z</time>
   </trkpt>
   <trkpt lat="40.4332000" lon="-3.6870130">
    <ele>685.2</ele>
    <time>2025-09-08T11:00:43Z</time>
   </trkpt>
   <trkpt lat="40.4332100" lon="-3.6870130">
    <ele>685.1</ele>
    <time>2025-09-08T11:00:44Z</time>
   </trkpt>
   <trkpt lat="40.4332150" lon="-3.6870050">
    <ele>685.1</ele>
    <time>2025-09-08T11:00:45Z</time>
   </trkpt>
   <trkpt lat="40.4332220" lon="-3.6869960">
    <ele>685.1</ele>
    <time>2025-09-08T11:00:46Z</time>
   </trkpt>
   <trkpt lat="40.4332230" lon="-3.6869810">
    <ele>685.1</ele>
    <time>2025-09-08T11:00:47Z</time>
   </trkpt>
   <trkpt lat="40.4332120" lon="-3.6869760">
    <ele>685.2</ele>
    <time>2025-09-08T11:00:48Z</time>
   </trkpt>
   <trkpt lat="40.4332360" lon="-3.6869400">
    <ele>685.2</ele>
    <time>2025-09-08T11:00:49Z</time>
   </trkpt>
   <trkpt lat="40.4332150" lon="-3.6869270">
    <ele>685.2</ele>
    <time>2025-09-08T11:00:50Z</time>
   </trkpt>
   <trkpt lat="40.4332040" lon="-3.6869200">
    <ele>685.2</ele>
    <time>2025-09-08T11:00:51Z</time>
   </trkpt>
   <trkpt lat="40.4331960" lon="-3.6868790">
    <ele>685.2</ele>
    <time>2025-09-08T11:00:52Z</time>
   </trkpt>
   <trkpt lat="40.4331870" lon="-3.6868570">
    <ele>685.2</ele>
    <time>2025-09-08T11:00:53Z</time>
   </trkpt>
   <trkpt lat="40.4331800" lon="-3.6868340">
    <ele>685.2</ele>
    <time>2025-09-08T11:00:54Z</time>
   </trkpt>
   <trkpt lat="40.4331790" lon="-3.6868210">
    <ele>685.2</ele>
    <time>2025-09-08T11:00:55Z</time>
   </trkpt>
   <trkpt lat="40.4331790" lon="-3.6868070">
    <ele>685.2</ele>
    <time>2025-09-08T11:00:56Z</time>
   </trkpt>
   <trkpt lat="40.4331780" lon="-3.6867940">
    <ele>685.2</ele>
    <time>2025-09-08T11:00:57Z</time>
   </trkpt>
   <trkpt lat="40.4331770" lon="-3.6867810">
    <ele>685.2</ele>
    <time>2025-09-08T11:00:58Z</time>
   </trkpt>
   <trkpt lat="40.4332440" lon="-3.6867750">
    <ele>685.3</ele>
    <time>2025-09-08T11:00:59Z</time>
   </trkpt>
   <trkpt lat="40.4333100" lon="-3.6867770">
    <ele>685.4</ele>
    <time>2025-09-08T11:01:00Z</time>
   </trkpt>
   <trkpt lat="40.4333770" lon="-3.6867790">
    <ele>685.5</ele>
    <time>2025-09-08T11:01:34Z</time>
   </trkpt>
   <trkpt lat="40.4334440" lon="-3.6867820">
    <ele>685.6</ele>
    <time>2025-09-08T11:01:35Z</time>
   </trkpt>
   <trkpt lat="40.4335110" lon="-3.6867840">
    <ele>685.7</ele>
    <time>2025-09-08T11:01:36Z</time>
   </trkpt>
   <trkpt lat="40.4335770" lon="-3.6867860">
    <ele>685.8</ele>
    <time>2025-09-08T11:01:37Z</time>
   </trkpt>
   <trkpt lat="40.4336440" lon="-3.6867880">
    <ele>685.9</ele>
    <time>2025-09-08T11:01:38Z</time>
   </trkpt>
   <trkpt lat="40.4336560" lon="-3.6867890">
    <ele>685.9</ele>
    <time>2025-09-08T11:01:39Z</time>
   </trkpt>
   <trkpt lat="40.4336660" lon="-3.6867920">
    <ele>685.9</ele>
    <time>2025-09-08T11:01:40Z</time>
   </trkpt>
   <trkpt lat="40.4336790" lon="-3.6867900">
    <ele>685.9</ele>
    <time>2025-09-08T11:01:41Z</time>
   </trkpt>
   <trkpt lat="40.4337020" lon="-3.6867810">
    <ele>686.0</ele>
    <time>2025-09-08T11:01:42Z</time>
   </trkpt>
   <trkpt lat="40.4337100" lon="-3.6867800">
    <ele>686.0</ele>
    <time>2025-09-08T11:01:43Z</time>
   </trkpt>
   <trkpt lat="40.4337180" lon="-3.6867790">
    <ele>686.0</ele>
    <time>2025-09-08T11:01:44Z</time>
   </trkpt>
   <trkpt lat="40.4337470" lon="-3.6867700">
    <ele>686.1</ele>
    <time>2025-09-08T11:01:45Z</time>
   </trkpt>
   <trkpt lat="40.4337540" lon="-3.6867710">
    <ele>686.1</ele>
    <time>2025-09-08T11:01:46Z</time>
   </trkpt>
   <trkpt lat="40.4337830" lon="-3.6867620">
    <ele>686.1</ele>
    <time>2025-09-08T11:01:47Z</time>
   </trkpt>
   <trkpt lat="40.4338210" lon="-3.6867450">
    <ele>686.2</ele>
    <time>2025-09-08T11:01:48Z</time>
   </trkpt>
   <trkpt lat="40.4338400" lon="-3.6867450">
    <ele>686.2</ele>
    <time>2025-09-08T11:01:49Z</time>
   </trkpt>
   <trkpt lat="40.4338530" lon="-3.6867150">
    <ele>686.3</ele>
    <time>2025-09-08T11:01:50Z</time>
   </trkpt>
   <trkpt lat="40.4338560" lon="-3.6867450">
    <ele>686.3</ele>
    <time>2025-09-08T11:01:51Z</time>
   </trkpt>
   <trkpt lat="40.4338660" lon="-3.6867250">
    <ele>686.3</ele>
    <time>2025-09-08T11:01:52Z</time>
   </trkpt>
   <trkpt lat="40.4339110" lon="-3.6867200">
    <ele>686.4</ele>
    <time>2025-09-08T11:01:53Z</time>
   </trkpt>
   <trkpt lat="40.4339440" lon="-3.6867240">
    <ele>686.5</ele>
    <time>2025-09-08T11:01:54Z</time>
   </trkpt>
   <trkpt lat="40.4339770" lon="-3.6867280">
    <ele>686.5</ele>
    <time>2025-09-08T11:01:55Z</time>
   </trkpt>
   <trkpt lat="40.4340070" lon="-3.6867220">
    <ele>686.6</ele>
    <time>2025-09-08T11:01:56Z</time>
   </trkpt>
   <trkpt lat="40.4340360" lon="-3.6867330">
    <ele>686.7</ele>
    <time>2025-09-08T11:01:57Z</time>
   </trkpt>
   <trkpt lat="40.4340860" lon="-3.6867660">
    <ele>686.8</ele>
    <time>2025-09-08T11:01:58Z</time>
   </trkpt>
   <trkpt lat="40.4341400" lon="-3.6867920">
    <ele>686.9</ele>
    <time>2025-09-08T11:01:59Z</time>
   </trkpt>
   <trkpt lat="40.4341740" lon="-3.6867700">
    <ele>687.0</ele>
    <time>2025-09-08T11:02:00Z</time>
   </trkpt>
   <trkpt lat="40.4341810" lon="-3.6867540">
    <ele>687.0</ele>
    <time>2025-09-08T11:02:01Z</time>
   </trkpt>
   <trkpt lat="40.4342220" lon="-3.6867350">
    <ele>687.1</ele>
    <time>2025-09-08T11:02:02Z</time>
   </trkpt>
   <trkpt lat="40.4342370" lon="-3.6867180">
    <ele>687.2</ele>
    <time>2025-09-08T11:02:03Z</time>
   </trkpt>
   <trkpt lat="40.4342720" lon="-3.6867130">
    <ele>687.3</ele>
    <time>2025-09-08T11:02:04Z</time>
   </trkpt>
   <trkpt lat="40.4343040" lon="-3.6867250">
    <ele>687.3</ele>
    <time>2025-09-08T11:02:05Z</time>
   </trkpt>
   <trkpt lat="40.4343190" lon="-3.6867360">
    <ele>687.4</ele>
    <time>2025-09-08T11:02:06Z</time>
   </trkpt>
   <trkpt lat="40.4343550" lon="-3.6867400">
    <ele>687.5</ele>
    <time>2025-09-08T11:02:07Z</time>
   </trkpt>
   <trkpt lat="40.4343680" lon="-3.6867480">
    <ele>687.5</ele>
    <time>2025-09-08T11:02:08Z</time>
   </trkpt>
   <trkpt lat="40.4344050" lon="-3.6867390">
    <ele>687.6</ele>
    <time>2025-09-08T11:02:09Z</time>
   </trkpt>
   <trkpt lat="40.4344170" lon="-3.6867340">
    <ele>687.6</ele>
    <time>2025-09-08T11:02:10Z</time>
   </trkpt>
   <trkpt lat="40.4344510" lon="-3.6867090">
    <ele>687.7</ele>
    <time>2025-09-08T11:02:11Z</time>
   </trkpt>
   <trkpt lat="40.4344770" lon="-3.6867020">
    <ele>687.8</ele>
    <time>2025-09-08T11:02:12Z</time>
   </trkpt>
   <trkpt lat="40.4345040" lon="-3.6867130">
    <ele>687.9</ele>
    <time>2025-09-08T11:02:13Z</time>
   </trkpt>
   <trkpt lat="40.4345190" lon="-3.6867260">
    <ele>687.9</ele>
    <time>2025-09-08T11:02:14Z</time>
   </trkpt>
   <trkpt lat="40.4345360" lon="-3.6867110">
    <ele>688.0</ele>
    <time>2025-09-08T11:02:15Z</time>
   </trkpt>
   <trkpt lat="40.4345630" lon="-3.6866840">
    <ele>688.1</ele>
    <time>2025-09-08T11:02:16Z</time>
   </trkpt>
   <trkpt lat="40.4345750" lon="-3.6866790">
    <ele>688.1</ele>
    <time>2025-09-08T11:02:17Z</time>
   </trkpt>
   <trkpt lat="40.4345880" lon="-3.6866720">
    <ele>688.1</ele>
    <time>2025-09-08T11:02:18Z</time>
   </trkpt>
   <trkpt lat="40.4346060" lon="-3.6866680">
    <ele>688.2</ele>
    <time>2025-09-08T11:02:19Z</time>
   </trkpt>
   <trkpt lat="40.4346500" lon="-3.6866670">
    <ele>688.3</ele>
    <time>2025-09-08T11:02:20Z</time>
   </trkpt>
   <trkpt lat="40.4346690" lon="-3.6866690">
    <ele>688.3</ele>
    <time>2025-09-08T11:02:21Z</time>
   </trkpt>
   <trkpt lat="40.4347230" lon="-3.6866970">
    <ele>688.5</ele>
    <time>2025-09-08T11:02:22Z</time>
   </trkpt>
   <trkpt lat="40.4347930" lon="-3.6866780">
    <ele>688.6</ele>
    <time>2025-09-08T11:02:23Z</time>
   </trkpt>
   <trkpt lat="40.4348060" lon="-3.6866780">
    <ele>688.7</ele>
    <time>2025-09-08T11:02:24Z</time>
   </trkpt>
   <trkpt lat="40.4348260" lon="-3.6866700">
    <ele>688.7</ele>
    <time>2025-09-08T11:02:25Z</time>
   </trkpt>
   <trkpt lat="40.4348630" lon="-3.6866820">
    <ele>688.8</ele>
    <time>2025-09-08T11:02:26Z</time>
   </trkpt>
   <trkpt lat="40.4348780" lon="-3.6866500">
    <ele>688.9</ele>
    <time>2025-09-08T11:02:27Z</time>
   </trkpt>
   <trkpt lat="40.4348830" lon="-3.6866290">
    <ele>688.9</ele>
    <time>2025-09-08T11:02:28Z</time>
   </trkpt>
   <trkpt lat="40.4348870" lon="-3.6866070">
    <ele>689.0</ele>
    <time>2025-09-08T11:02:29Z</time>
   </trkpt>
   <trkpt lat="40.4349290" lon="-3.6865780">
    <ele>689.2</ele>
    <time>2025-09-08T11:02:30Z</time>
   </trkpt>
   <trkpt lat="40.4349360" lon="-3.6865440">
    <ele>689.0</ele>
    <time>2025-09-08T11:02:31Z</time>
   </trkpt>
   <trkpt lat="40.4349420" lon="-3.6864990">
    <ele>688.7</ele>
    <time>2025-09-08T11:02:32Z</time>
   </trkpt>
   <trkpt lat="40.4349560" lon="-3.6864670">
    <ele>688.9</ele>
    <time>2025-09-08T11:02:33Z</time>
   </trkpt>
   <trkpt lat="40.4349750" lon="-3.6864320">
    <ele>689.4</ele>
    <time>2025-09-08T11:02:34Z</time>
   </trkpt>
   <trkpt lat="40.4349770" lon="-3.6864160">
    <ele>689.6</ele>
    <time>2025-09-08T11:02:35Z</time>
   </trkpt>
   <trkpt lat="40.4349890" lon="-3.6863830">
    <ele>689.9</ele>
    <time>2025-09-08T11:02:36Z</time>
   </trkpt>
   <trkpt lat="40.4349810" lon="-3.6863340">
    <ele>690.0</ele>
    <time>2025-09-08T11:02:37Z</time>
   </trkpt>
   <trkpt lat="40.4349790" lon="-3.6863160">
    <ele>690.0</ele>
    <time>2025-09-08T11:02:38Z</time>
   </trkpt>
   <trkpt lat="40.4349550" lon="-3.6862780">
    <ele>690.0</ele>
    <time>2025-09-08T11:02:39Z</time>
   </trkpt>
   <trkpt lat="40.4349550" lon="-3.6862380">
    <ele>690.1</ele>
    <time>2025-09-08T11:02:40Z</time>
   </trkpt>
   <trkpt lat="40.4349540" lon="-3.6862220">
    <ele>690.1</ele>
    <time>2025-09-08T11:02:41Z</time>
   </trkpt>
   <trkpt lat="40.4349630" lon="-3.6861790">
    <ele>690.1</ele>
    <time>2025-09-08T11:02:42Z</time>
   </trkpt>
   <trkpt lat="40.4349690" lon="-3.6861590">
    <ele>690.2</ele>
    <time>2025-09-08T11:02:43Z</time>
   </trkpt>
   <trkpt lat="40.4349820" lon="-3.6861270">
    <ele>690.2</ele>
    <time>2025-09-08T11:02:44Z</time>
   </trkpt>
   <trkpt lat="40.4349880" lon="-3.6861150">
    <ele>690.3</ele>
    <time>2025-09-08T11:02:45Z</time>
   </trkpt>
   <trkpt lat="40.4350100" lon="-3.6860920">
    <ele>690.3</ele>
    <time>2025-09-08T11:02:46Z</time>
   </trkpt>
   <trkpt lat="40.4350110" lon="-3.6860470">
    <ele>690.4</ele>
    <time>2025-09-08T11:02:47Z</time>
   </trkpt>
   <trkpt lat="40.4350120" lon="-3.6860300">
    <ele>690.4</ele>
    <time>2025-09-08T11:02:48Z</time>
   </trkpt>
   <trkpt lat="40.4349940" lon="-3.6860170">
    <ele>690.4</ele>
    <time>2025-09-08T11:02:49Z</time>
   </trkpt>
   <trkpt lat="40.4349850" lon="-3.6860110">
    <ele>690.4</ele>
    <time>2025-09-08T11:02:50Z</time>
   </trkpt>
   <trkpt lat="40.4349760" lon="-3.6860040">
    <ele>690.4</ele>
    <time>2025-09-08T11:02:51Z</time>
   </trkpt>
   <trkpt lat="40.4349700" lon="-3.6859920">
    <ele>690.4</ele>
    <time>2025-09-08T11:02:52Z</time>
   </trkpt>
  </trkseg>
 </trk>
</gpx>
